[{"worklocation":"AE01","extendedAddress":"CP:UAE-Dubai-M/E Exports","streetAddress":"Jebel Ali Free Zone, Office 28","poBox":"PO Box 61462","locality":"Dubai","region":"","postalCode":"LOB 21"},{"worklocation":"AE02","extendedAddress":"CP:UAE-Dubai","streetAddress":"Jebel Ali Free Zone, Office 28","poBox":"PO Box 61462","locality":"Dubai","region":"","postalCode":"LOB 21"},{"worklocation":"AE03","extendedAddress":"CP:UAE-Dubai","streetAddress":"Jebel Ali Free Zone, Office 28","poBox":"PO Box 61462","locality":"Dubai","region":"","postalCode":"LOB 21"},{"worklocation":"AE04","extendedAddress":"CP:UAE-Dubai-M/E Exports","streetAddress":"Jebel Ali Free Zone, Office 28","poBox":"","locality":"Dubai","region":"","postalCode":"LOB 21"},{"worklocation":"AF01","extendedAddress":"OBS:CP:Afghanistan","streetAddress":"Amin Trade Center 3rd Floor","poBox":"","locality":"Kabul","region":"","postalCode":""},{"worklocation":"AL01","extendedAddress":"CP:Albania (Adria)","streetAddress":"InterbrndsM\u0026D,AutostradaTirane","poBox":"Durres, KM 1 Fushemezez,","locality":"Tirana","region":"","postalCode":""},{"worklocation":"AM01","extendedAddress":"OBS:CP:Armenia","streetAddress":"A.P. 30,49 Pushkin Street","poBox":"","locality":"Erevan","region":"","postalCode":""},{"worklocation":"AO01","extendedAddress":"CP:Angola","streetAddress":"Rua Manuel Agosto dos Santos","poBox":"Casa No. 28-A,Bairro Maculsso","locality":"Ingombota","region":"","postalCode":"4000186"},{"worklocation":"AR10","extendedAddress":"CP:Argentina-BPSI","streetAddress":"Cuyo 3532, Edificio \"C\"","poBox":"","locality":"Buenos Aires","region":"01","postalCode":"B1640GJF"},{"worklocation":"AR11","extendedAddress":"CP:Argentina-San Luis","streetAddress":"Calle 5 y 105","poBox":"Parque Ind Norte","locality":"San Luis","region":"","postalCode":"5700"},{"worklocation":"AR12","extendedAddress":"CP:Argentina-BPSI-CBS","streetAddress":"Cuyo 3532, Edificio \"C\"","poBox":"","locality":"Buenos Aires","region":"01","postalCode":"B1640GJF"},{"worklocation":"AR20","extendedAddress":"CP:Argentina-Llavallol","streetAddress":"Av Antartida Argentina 2269","poBox":"","locality":"Llavallol","region":"01","postalCode":"1836"},{"worklocation":"ARH1","extendedAddress":"Hill's:Argentina-Llavallol","streetAddress":"Av Antartida Argentina 2269","poBox":"","locality":"Llavallol","region":"01","postalCode":"1836"},{"worklocation":"ASHA","extendedAddress":"OBS:Hill's Asia","streetAddress":"","poBox":"","locality":"","region":"","postalCode":""},{"worklocation":"AT01","extendedAddress":"CP:Austria-Vienna","streetAddress":"Donau-City-Strasse 11","poBox":"","locality":"Vienna","region":"","postalCode":"1220"},{"worklocation":"ATH1","extendedAddress":"Hill's:Austria-Vienna","streetAddress":"Donau-City-Strasse 11","poBox":"","locality":"Vienna","region":"","postalCode":"1220"},{"worklocation":"AU05","extendedAddress":"OBS:AP Div Australia","streetAddress":"","poBox":"","locality":"","region":"","postalCode":""},{"worklocation":"AU08","extendedAddress":"OBS:GIT Australia","streetAddress":"","poBox":"","locality":"","region":"","postalCode":""},{"worklocation":"AU10","extendedAddress":"CP:Australia-Sydney","streetAddress":"L14, 345 George Street","poBox":"","locality":"Sydney, NSW","region":"","postalCode":"2000"},{"worklocation":"AU20","extendedAddress":"CP:Australia-Villawood","streetAddress":"50 Marple Ave","poBox":"","locality":"Villawood, NSW","region":"","postalCode":"2163"},{"worklocation":"AU30","extendedAddress":"OBS:CP:Australia-Labrador","streetAddress":"76 SkyringTerrace","poBox":"","locality":"Newstead","region":"QLD","postalCode":"4006"},{"worklocation":"AU40","extendedAddress":"CP:Australia-Melbourne","streetAddress":"1B/21 Lionel Road","poBox":"","locality":"Mount Waverley","region":"VIC","postalCode":"3149"},{"worklocation":"AU50","extendedAddress":"CP:Australia-Brisbane","streetAddress":"76SkyringTerrace,CorpH,Lob1le2","poBox":"","locality":"Newstead","region":"QLD","postalCode":"4006"},{"worklocation":"AU60","extendedAddress":"CP:Australia-Adelaide","streetAddress":"185 Fullarton Road","poBox":"","locality":"Dulwich","region":"SA","postalCode":"5065"},{"worklocation":"AU70","extendedAddress":"CP:Australia-Perth","streetAddress":"19-41 Catalano Circuit","poBox":"","locality":"Canning Vale, WA","region":"","postalCode":"6155"},{"worklocation":"AU80","extendedAddress":"CP:Australia-Tasmania","streetAddress":"Via 11-13 Palmer Court","poBox":"","locality":"Mount Waverley, VIC","region":"","postalCode":"3149"},{"worklocation":"AUHA","extendedAddress":"Hill's:Australia-Sydney","streetAddress":"L14, 345 George Street","poBox":"","locality":"Sydney, NSW","region":"","postalCode":"2000"},{"worklocation":"AUHB","extendedAddress":"Hill's:Australia-Brisbane","streetAddress":"15/459 Tufnell Road","poBox":"","locality":"Banyo","region":"QLD","postalCode":"4014"},{"worklocation":"AUHC","extendedAddress":"Hill's:Australia-Melbourne","streetAddress":"1B/21 Lionel Road","poBox":"","locality":"Mount Waverley","region":"VIC","postalCode":"3149"},{"worklocation":"AUHD","extendedAddress":"Hill's:Australia-Adelaide","streetAddress":"185 Fullarton Road","poBox":"","locality":"Dulwich","region":"SA","postalCode":"5065"},{"worklocation":"AZ01","extendedAddress":"OBS:CP:Azerbaijan","streetAddress":"Caspian Business Centre","poBox":"40, Str. J. Jabarli","locality":"Baku","region":"","postalCode":"370065"},{"worklocation":"AZ02","extendedAddress":"CP:Azerbaijan","streetAddress":"Caspian Business Centre","poBox":"40, Str. J. Jabarli","locality":"Baku","region":"","postalCode":"370065"},{"worklocation":"BA01","extendedAddress":"CP:Bosnia-Hercegovina-Sarajevo","streetAddress":"Mostarsko Raskrsce BB","poBox":"Zgrada Sinalco","locality":"Hadzici","region":"","postalCode":"71240"},{"worklocation":"BB06","extendedAddress":"OBS:CP:Barbados-Svc Co","streetAddress":"","poBox":"","locality":"","region":"","postalCode":""},{"worklocation":"BE01","extendedAddress":"CP:Belgium-Brussels-Comm","streetAddress":"165 Boulevard du Souverain","poBox":"","locality":"Brussels","region":"","postalCode":"1160"},{"worklocation":"BE02","extendedAddress":"OBS:CP:Belgium-Liege-Mfg Plant","streetAddress":"Avenue du Parc Industriel 99","poBox":"","locality":"Herstal","region":"","postalCode":"B-4041"},{"worklocation":"BE03","extendedAddress":"OBS:CP:Belgium-Gent-Mfg Plant","streetAddress":"Oefenpleinstraat 10","poBox":"","locality":"Gentbrugge","region":"","postalCode":"9050"},{"worklocation":"BE04","extendedAddress":"CP:Belgium-Liege-GTC","streetAddress":"Rue Saint-Exupery 17","poBox":"EU Tech Center, Res \u0026 Dev Inc.","locality":"Grace-Hollogne","region":"","postalCode":"B-4460"},{"worklocation":"BE05","extendedAddress":"OBS:CP:Belgium-Brussels HQ-Eur","streetAddress":"165 Boulevard du Souverain","poBox":"","locality":"Brussels","region":"","postalCode":"1160"},{"worklocation":"BE60","extendedAddress":"CP:Belgium-Brussels-BSC","streetAddress":"165 Boulevard du Souverain","poBox":"","locality":"Brussels","region":"","postalCode":"1160"},{"worklocation":"BEG1","extendedAddress":"OBS:GABA:Belgium-Brussels-Comm","streetAddress":"165 Boulevard du Souverain","poBox":"","locality":"Brussels","region":"","postalCode":"1160"},{"worklocation":"BEH1","extendedAddress":"Hill's:Belgium-Brussels","streetAddress":"165 Boulevard du Souverain","poBox":"","locality":"Brussels","region":"","postalCode":"1160"},{"worklocation":"BG01","extendedAddress":"CP:Bulgaria  (Adria)","streetAddress":"64, Christopher Columbus Blvd.","poBox":"Building 1, Entr. 1., Floor 1","locality":"Sofia","region":"","postalCode":"1528"},{"worklocation":"BGH1","extendedAddress":"OBS:Hill's:Bulgaria","streetAddress":"Bulevar Totleben 63 Floor 2","poBox":"","locality":"Sofia","region":"","postalCode":"1680"},{"worklocation":"BJ01","extendedAddress":"CP:Benin","streetAddress":"01 BP 07, C. B. N. D.","poBox":"01 BP 07, C. B. N. D.","locality":"Cotonou","region":"","postalCode":"4000184"},{"worklocation":"BN99","extendedAddress":"CP:Brunei","streetAddress":"","poBox":"","locality":"","region":"","postalCode":""},{"worklocation":"BO01","extendedAddress":"CP:Bolivia-La Paz","streetAddress":"Calle 16 # 8236 Calacoto","poBox":"","locality":"La Paz","region":"","postalCode":"7625"},{"worklocation":"BR10","extendedAddress":"OBS:CP : Brazil -Jaguare","streetAddress":"Rua Santo Eurilo, 195 - Jaguar","poBox":"","locality":"São Paulo/SP","region":"SP","postalCode":"05345-040"},{"worklocation":"BR11","extendedAddress":"OBS:CP : Brazil -Osasco","streetAddress":"Av. Manoel Pedro Pimentel, 101","poBox":"","locality":"Vila Yara - Osasco/SP","region":"SP","postalCode":"06020-170"},{"worklocation":"BR20","extendedAddress":"OBS:CP : Brazil-Raposo Tavares","streetAddress":"Via Arterial Sul","poBox":"450-Rod. Raposo Tavares Km 20","locality":"Osasco - São Paulo","region":"","postalCode":"06149-000"},{"worklocation":"BR21","extendedAddress":"OBS:CP : Brazil-Anchieta","streetAddress":"Rodovia Anchieta, KM 14","poBox":"COLGATE-PALMOLIVE IND.E COM.LT","locality":"São Bernardo do Campo/SP","region":"SP","postalCode":"09696-000"},{"worklocation":"BR22","extendedAddress":"CP:Brazil-Rio de Janeiro","streetAddress":"Av. Pastor Martin Luther King","poBox":"Salas 323/324/325/326","locality":"Rio de Janeiro / RJ","region":"RJ","postalCode":"20765-120"},{"worklocation":"BR23","extendedAddress":"CP:Brazil-Porto Alegre","streetAddress":"Rua Luciana de Abreu 471 - 403","poBox":"Imbuhy","locality":"Porto Alegre/RS","region":"RS","postalCode":"90570-060"},{"worklocation":"BR24","extendedAddress":"CP:Brazil-Recife","streetAddress":"Rua Jose Alves Bezerra, 454","poBox":"","locality":"Jaboatao dos Guararapes","region":"PE","postalCode":"54325-610"},{"worklocation":"BR30","extendedAddress":"CP:Brazil-Jaguare-MFG","streetAddress":"Rua Santo Eurilo, 195","poBox":"","locality":"Sao Paulo","region":"SP","postalCode":"05345-040"},{"worklocation":"BR31","extendedAddress":"OBS:CP:Brazil-Osasco-MFG","streetAddress":"Av. Manoel Pedro Pimentel, 101","poBox":"","locality":"Osasco/SP","region":"","postalCode":"06020-170"},{"worklocation":"BR32","extendedAddress":"CP:Brazil-Via-Anchieta-MFG","streetAddress":"Via Anchieta, km. 14","poBox":"","locality":"Sao Bernardo do Campo","region":"SP","postalCode":"09696-000"},{"worklocation":"BR33","extendedAddress":"CP:Brazil-Imigrantes","streetAddress":"Rodovia dos Imigrantes, KM 28","poBox":"","locality":"Sao Bernardo do Campo","region":"SP","postalCode":"09845-000"},{"worklocation":"BR91","extendedAddress":"CP:Brazil-Vila Mariana","streetAddress":"Rua Rio Grande, 752","poBox":"Vila Mariana","locality":"Sao Paulo","region":"SP","postalCode":"04018-002"},{"worklocation":"BR92","extendedAddress":"CP:Brazil-Vila Mariana-CBS","streetAddress":"Rua Rio Grande, 752","poBox":"Vila Mariana","locality":"Sao Paulo","region":"SP","postalCode":"04018-002"},{"worklocation":"BRH1","extendedAddress":"Hill's:Brazil-Vila Mariana","streetAddress":"Rua Rio Grande, 752","poBox":"Vila Mariana","locality":"Sao Paulo","region":"SP","postalCode":"04018-002"},{"worklocation":"BRH2","extendedAddress":"Hill's:Brazil-Via Anchieta-MFG","streetAddress":"Via Anchieta, km. 14","poBox":"","locality":"Sao Bernardo do Campo","region":"SP","postalCode":"09883-000"},{"worklocation":"BRH3","extendedAddress":"Hill's:Brazil-Rio de Janeiro","streetAddress":"Av. Pastor Martin Luther King","poBox":"Salas 323/324/325/326","locality":"Rio de Janeiro / RJ","region":"RJ","postalCode":"20765-120"},{"worklocation":"BRH4","extendedAddress":"Hill's:Brazil-Porto Alegre","streetAddress":"Av. Gravatai, 814","poBox":"Imbuhy","locality":"Cachoeirinha/RS","region":"RS","postalCode":""},{"worklocation":"BRH5","extendedAddress":"Hill's:Brazil-Imigrantes","streetAddress":"Rod. Dos Imigrantes KM28","poBox":"Sitio dos Morros Batistini","locality":"Sao Bernardo do Campo","region":"","postalCode":"09845-000"},{"worklocation":"BRH6","extendedAddress":"Hill's:Brazil-Recife","streetAddress":"Av. Agamenon Magalhaes, 4779","poBox":"Sala 301","locality":"Recife","region":"RJ","postalCode":"50070-160"},{"worklocation":"BW01","extendedAddress":"OBS:CP Botswana Ltd.-AME","streetAddress":"","poBox":"","locality":"Gaborone","region":"","postalCode":""},{"worklocation":"BY01","extendedAddress":"OBS:CP:Belarus","streetAddress":"34, Pritytskogo Str.","poBox":"","locality":"Minsk","region":"","postalCode":"220082"},{"worklocation":"BY02","extendedAddress":"CP:Belarus","streetAddress":"34, Pritytskogo Str.","poBox":"","locality":"Minsk","region":"","postalCode":"220082"},{"worklocation":"CA01","extendedAddress":"CP:Canada-Calgary","streetAddress":"Deerfoot Junction III,Ste 316","poBox":"1212 - 31st Ave NE","locality":"Calgary","region":"AB","postalCode":"M2P 2B8"},{"worklocation":"CA02","extendedAddress":"OBS:Canada: Edmonton Plt","streetAddress":"","poBox":"","locality":"","region":"","postalCode":""},{"worklocation":"CA03","extendedAddress":"OBS:Canada: Edmonton Wse","streetAddress":"","poBox":"","locality":"","region":"","postalCode":""},{"worklocation":"CA04","extendedAddress":"CP:Canada-Field Sales","streetAddress":"","poBox":"","locality":"","region":"","postalCode":""},{"worklocation":"CA05","extendedAddress":"CP:Canada-Toronto","streetAddress":"Two Morneau Sobeco Ctr, 6th Fl","poBox":"895 Don Mills Rd","locality":"Toronto","region":"ON","postalCode":"M3C 1W3"},{"worklocation":"CA06","extendedAddress":"OBS:CP:Canada-Mississauga","streetAddress":"6400 Northwest Drive","poBox":"","locality":"Mississauga","region":"","postalCode":"L4V 1K1"},{"worklocation":"CA07","extendedAddress":"OBS:Canada: Moncton","streetAddress":"","poBox":"","locality":"","region":"","postalCode":""},{"worklocation":"CA08","extendedAddress":"CP:Canada-Montreal","streetAddress":"4885 rue Ambroise-Lafortune","poBox":"","locality":"Boisbriand","region":"QC","postalCode":"J7H 0A4"},{"worklocation":"CA09","extendedAddress":"CP:Canada-Field Sales-BC","streetAddress":"","poBox":"","locality":"","region":"","postalCode":""},{"worklocation":"CA10","extendedAddress":"CP:Canada-Field Sales-ON/AB/SK","streetAddress":"","poBox":"","locality":"","region":"","postalCode":""},{"worklocation":"CA11","extendedAddress":"CP:Canada-Field Sales-QC","streetAddress":"","poBox":"","locality":"","region":"","postalCode":""},{"worklocation":"CAHA","extendedAddress":"Hill's:Canada-Toronto","streetAddress":"Two Morneau Sobeco Ctr,6th Fl","poBox":"895 Don Mills Rd","locality":"Toronto","region":"ON","postalCode":"M3C 1W3"},{"worklocation":"CAHB","extendedAddress":"Hill's:Canada-Field Sales","streetAddress":"","poBox":"","locality":"","region":"","postalCode":""},{"worklocation":"CAHC","extendedAddress":"Hill's:Canada-Field Sales-BC","streetAddress":"","poBox":"","locality":"","region":"","postalCode":""},{"worklocation":"CAHD","extendedAddress":"Hill's:Canada-Field Sales-ON/A","streetAddress":"","poBox":"","locality":"","region":"","postalCode":""},{"worklocation":"CAHE","extendedAddress":"Hill's:Canada-Field Sales-QC","streetAddress":"","poBox":"","locality":"","region":"","postalCode":""},{"worklocation":"CD01","extendedAddress":"CP:Dem. Rep. of Congo","streetAddress":"Beltexco, Kinshasa","poBox":"Beltexco, Kinshasa","locality":"Kinshasa","region":"","postalCode":"4000187"},{"worklocation":"CE00","extendedAddress":"OBS:Central Eu/Russia Div","streetAddress":"","poBox":"","locality":"","region":"","postalCode":""},{"worklocation":"CE01","extendedAddress":"OBS:Central EU/RU IT/SSO","streetAddress":"","poBox":"","locality":"","region":"","postalCode":""},{"worklocation":"CG01","extendedAddress":"CP:Congo","streetAddress":"Avenue Du 13 Aout 1963","poBox":"Societe Regal","locality":"Grand Marche","region":"","postalCode":"4000181"},{"worklocation":"CH01","extendedAddress":"CP:Switzerland-Therwil","streetAddress":"Grabetsmattweg 1","poBox":"","locality":"Therwil","region":"","postalCode":"CH-4106"},{"worklocation":"CHG1","extendedAddress":"OBS:GABA:Switzerland-Commercia","streetAddress":"Grabetsmattweg 1","poBox":"","locality":"Therwil","region":"","postalCode":"CH-4106"},{"worklocation":"CHG2","extendedAddress":"GABA:Switzerland -Therwil SCM","streetAddress":"Grabetsmattweg 1","poBox":"","locality":"Therwil","region":"","postalCode":"CH-4106"},{"worklocation":"CHH1","extendedAddress":"Hill's:Switzerland-Therwil","streetAddress":"Grabetsmattweg 1","poBox":"","locality":"Therwil","region":"","postalCode":"CH-4106"},{"worklocation":"CI01","extendedAddress":"CP:Ivory Coast CISA","streetAddress":"Marcory Blvd","poBox":"VGE Immeuble Kalimba-1er etag","locality":"Abidjan","region":"","postalCode":"01 BP 1283"},{"worklocation":"CL10","extendedAddress":"CP:Chile-Santiago","streetAddress":"Las Esteras 2800","poBox":"Quilicura","locality":"Casilla","region":"","postalCode":"3329"},{"worklocation":"CL11","extendedAddress":"CP:Chile-Santiago-CBS","streetAddress":"Las Esteras 2800","poBox":"Quilicura","locality":"Casilla","region":"","postalCode":"3329"},{"worklocation":"CLH1","extendedAddress":"OBS:Hill's:Chile-Santiago","streetAddress":"Las Esteras 2800","poBox":"Quilicura","locality":"Casilla","region":"","postalCode":"3329"},{"worklocation":"CM01","extendedAddress":"CP:Cameroon SA","streetAddress":"1008 Boulevard, Leclerc","poBox":"","locality":"Douala, Cameroon","region":"","postalCode":""},{"worklocation":"CN01","extendedAddress":"CP:China-CGZ-HR","streetAddress":"17/F Teem Tower","poBox":"208 Tian He Road","locality":"Guangzhou","region":"","postalCode":"510620"},{"worklocation":"CN02","extendedAddress":"CP:China-CPGZ-HR","streetAddress":"17/F Teem Tower","poBox":"208 Tian He Road","locality":"Guangzhou","region":"","postalCode":"510620"},{"worklocation":"CN03","extendedAddress":"CP:China-CSX Yangzhou","streetAddress":"No.2, Sanxiao Rd, Hangji Town","poBox":"Hanjiang County","locality":"Yangzhou, JiangSu","region":"","postalCode":"225111"},{"worklocation":"CN04","extendedAddress":"CP:China-Hawley\u0026Hazel","streetAddress":"","poBox":"","locality":"","region":"","postalCode":""},{"worklocation":"CN05","extendedAddress":"CP:China-Yangzhou-Commercial","streetAddress":"No. 8 Gaolujie Road,","poBox":"Hangji Ind Park,Hanjiang Dist","locality":"Yangzhou","region":"","postalCode":"225111"},{"worklocation":"CN06","extendedAddress":"CP:China-Yangzhou- Assignees","streetAddress":"No. 8 Gaolujie Road,","poBox":"Hangji Ind Park,Hanjiang Dist","locality":"Yangzhou","region":"","postalCode":"225111"},{"worklocation":"CN11","extendedAddress":"CP:China-CGZ-HP Facilities","streetAddress":"338 Qing Nian Road, Xin Gang","poBox":"","locality":"Huangpu, Guangzhou","region":"","postalCode":"510730"},{"worklocation":"CN12","extendedAddress":"CP:China-CPGZ-HP Facilities","streetAddress":"338 Qing Nian Road, Xin Gang","poBox":"","locality":"Huangpu, Guangzhou","region":"","postalCode":"510730"},{"worklocation":"CN50","extendedAddress":"CP:China-CPGZ-West Region","streetAddress":"6/F, Zhong Hai Tower","poBox":"36 Longteng East Rd","locality":"Chengdu","region":"","postalCode":""},{"worklocation":"CN51","extendedAddress":"CP:China-CPGZ-East Region","streetAddress":"Floor 18, Hongwell Intl. Plaza","poBox":"No. 1602 Zhongshan Rd(W)","locality":"Shanghai","region":"","postalCode":""},{"worklocation":"CN52","extendedAddress":"CP:China-CPGZ-North Region","streetAddress":"Rm 3001-02,SK Tower,No.6 Jia","poBox":"Jianguomenwai Avenue","locality":"Beijing","region":"","postalCode":""},{"worklocation":"CN53","extendedAddress":"OBS:Wuhan RDC","streetAddress":"","poBox":"","locality":"","region":"","postalCode":""},{"worklocation":"CN54","extendedAddress":"OBS:Chengdu RDC","streetAddress":"","poBox":"","locality":"","region":"","postalCode":""},{"worklocation":"CN55","extendedAddress":"OBS:Shenyang RDC","streetAddress":"","poBox":"","locality":"","region":"","postalCode":""},{"worklocation":"CN56","extendedAddress":"OBS:Nanjing","streetAddress":"","poBox":"","locality":"","region":"","postalCode":""},{"worklocation":"CN57","extendedAddress":"OBS:CSX Shanghai 高露洁三笑上海","streetAddress":"","poBox":"","locality":"","region":"","postalCode":""},{"worklocation":"CN58","extendedAddress":"OBS:CSX Nanning 高露洁三笑南宁","streetAddress":"","poBox":"","locality":"","region":"","postalCode":""},{"worklocation":"CNA1","extendedAddress":"CP:China-CGZ-Head Ofc \u0026 So Reg","streetAddress":"17/F Teem Tower","poBox":"208 Tian He Road","locality":"Guangzhou","region":"","postalCode":"510620"},{"worklocation":"CNA2","extendedAddress":"CP:China-CPGZ-Head Ofc\u0026So Reg","streetAddress":"17/F Teem Tower","poBox":"208 Tian He Road","locality":"Guangzhou","region":"","postalCode":"510620"},{"worklocation":"CNH1","extendedAddress":"Hill's:China","streetAddress":"17/F Teem Tower","poBox":"208 Tian He Road","locality":"Guangzhou","region":"","postalCode":"510620"},{"worklocation":"CO10","extendedAddress":"CP:Colombia-Cali","streetAddress":"Carrera 1 No. 40-108","poBox":"","locality":"Cali","region":"","postalCode":""},{"worklocation":"CO11","extendedAddress":"CP:Colombia-Cali-CBS","streetAddress":"Carrera 1 No. 40-108","poBox":"","locality":"Cali","region":"","postalCode":""},{"worklocation":"CO20","extendedAddress":"OBS:Arroyohondo","streetAddress":"Cra 1 No. 40 -108","poBox":"","locality":"Santiago de Cali","region":"","postalCode":""},{"worklocation":"CO23","extendedAddress":"CP:Colombia-Bogota","streetAddress":"Calle 100 No.7-33 Oficina 801","poBox":"Edificio Cap Tower","locality":"Edificio Cap Tower-Bogota","region":"","postalCode":""},{"worklocation":"CO24","extendedAddress":"CP:Colombia-Medellin","streetAddress":"Carrera 43A No. 9-Sur 91 Piso","poBox":"","locality":"Medellin","region":"","postalCode":""},{"worklocation":"CO25","extendedAddress":"CP:Colombia-Barranquilla","streetAddress":"Carrera 47 No. 79-145","poBox":"","locality":"Barranquilla","region":"","postalCode":""},{"worklocation":"CO40","extendedAddress":"OBS:ELF-ATOCHEM (Bogota)","streetAddress":"Cra 1 No. 40 -108","poBox":"","locality":"Santiago de Cali","region":"","postalCode":""},{"worklocation":"COH1","extendedAddress":"Hill's:Colombia-Bogota","streetAddress":"Calle 100 No.7-33 Oficina 801","poBox":"Edificio Cap Tower","locality":"Bogota","region":"","postalCode":""},{"worklocation":"CR20","extendedAddress":"CP:Costa Rica-CR","streetAddress":"400 mts. Oeste, 400 mts. norte","poBox":"de la Plaza de Deportes","locality":"San Jose","region":"","postalCode":"10040-1000"},{"worklocation":"CS01","extendedAddress":"OBS:CP:Serbia-Montenegro-Belgr","streetAddress":"Bulevar 12 Februar 122/8","poBox":"","locality":"Nis","region":"","postalCode":"11000"},{"worklocation":"CZ01","extendedAddress":"CP:Czech Republic-Prague","streetAddress":"Rohanske nabrezi 678/23,Karlin","poBox":"","locality":"Praha 8","region":"","postalCode":"186 00"},{"worklocation":"CZH1","extendedAddress":"OBS:Hill's:Czech Rep-Hustopece","streetAddress":"Nadrazni 269/49","poBox":"","locality":"Hustopece","region":"","postalCode":"693 01"},{"worklocation":"CZH2","extendedAddress":"OBS:Hill's:Czech Rep-Prague-EU","streetAddress":"Rohanske nabrezi 678/23,Karlin","poBox":"","locality":"Praha 8","region":"","postalCode":"186 00"},{"worklocation":"CZH3","extendedAddress":"OBS:Hill's:Czech-Prague-CEMEER","streetAddress":"Rohanske nabrezi 678/23,Karlin","poBox":"","locality":"Praha 8","region":"","postalCode":"186 00"},{"worklocation":"CZH4","extendedAddress":"Hill's:Czech Rep-Hustopece-Mfg","streetAddress":"Nadrazni 269/49","poBox":"","locality":"Hustopece","region":"","postalCode":"693 01"},{"worklocation":"CZH5","extendedAddress":"Hill's:Czech Rep-Prague-EU Reg","streetAddress":"Rohanske nabrezi 678/23,Karlin","poBox":"Hill's Pet Nutrition sro","locality":"Praha 8","region":"","postalCode":"186 00"},{"worklocation":"CZH6","extendedAddress":"Hill's:Czech Rep-Prague-CEMEER","streetAddress":"Rohanske nabrezi 678/23,Karlin","poBox":"Hill's Pet Nutrition sro","locality":"Praha 8","region":"","postalCode":"186 00"},{"worklocation":"DE01","extendedAddress":"CP:Germany-Hamburg","streetAddress":"Beim Strohhause 17","poBox":"","locality":"Hamburg","region":"","postalCode":"20097"},{"worklocation":"DE05","extendedAddress":"OBS:CP Germany Verwaltung","streetAddress":"Liebigstrasse 2-20","poBox":"","locality":"Hamburg","region":"","postalCode":"22113"},{"worklocation":"DE60","extendedAddress":"CP:Germany-Services CEW GmbH","streetAddress":"Beim Strohhause 17","poBox":"","locality":"Hamburg","region":"","postalCode":"20097"},{"worklocation":"DE61","extendedAddress":"OBS:CP:Germany-Services CEW So","streetAddress":"Im Entenbad 4","poBox":"CP GABA GmbH","locality":"Loerrach","region":"","postalCode":"79541"},{"worklocation":"DEG1","extendedAddress":"OBS:GABA:Germany-Loerrach-Comm","streetAddress":"Berner Weg 7","poBox":"","locality":"Loerrach","region":"","postalCode":"D-79539"},{"worklocation":"DEG2","extendedAddress":"OBS:GABA:Germany-Loerrach-SCM","streetAddress":"Berner Weg 7","poBox":"","locality":"Loerrach","region":"","postalCode":"D-79539"},{"worklocation":"DEH1","extendedAddress":"Hill's:Germany-Hamburg","streetAddress":"Beim Strohhause 17","poBox":"","locality":"Hamburg","region":"","postalCode":"20097"},{"worklocation":"DK01","extendedAddress":"CP:Denmark-Copenhagen-Comm","streetAddress":"Bredevej 2A","poBox":"","locality":"Virum","region":"","postalCode":"DK-2830"},{"worklocation":"DK40","extendedAddress":"OBS:CP:Denmark-Copenhagen-Mfg","streetAddress":"Parallelvej 16","poBox":"","locality":"Kgs. Lyngby","region":"","postalCode":"DK-2800"},{"worklocation":"DKH1","extendedAddress":"Hill's:Denmark-Copenhagen","streetAddress":"Bredevej 2A","poBox":"","locality":"Virum","region":"","postalCode":"DK-2830"},{"worklocation":"DKH2","extendedAddress":"Hill's:Denmark-Copenhagen-CBS","streetAddress":"Bredevej 2A","poBox":"","locality":"Virum","region":"","postalCode":"DK-2830"},{"worklocation":"DM10","extendedAddress":"CP:Dominica-Coconut","streetAddress":"Belfast Main Road","poBox":"P.O. Box 18","locality":"Belfast, St. Paul","region":"","postalCode":""},{"worklocation":"DM11","extendedAddress":"OBS:CP:Dominica-Refresh","streetAddress":"Belfast Main Road","poBox":"P.O. Box 18","locality":"Belfast, St. Paul","region":"","postalCode":""},{"worklocation":"DO10","extendedAddress":"CP:Dominican Republic-MR","streetAddress":"Avenida Charles de Gaulle","poBox":"Villa Mella","locality":"Santo Domingo","region":"","postalCode":"1337"},{"worklocation":"DO11","extendedAddress":"CP:Dominican Republic-MG","streetAddress":"Avenida Maximo Gomez #103","poBox":"Villas Agricolas","locality":"Santo Domingo","region":"","postalCode":"1337"},{"worklocation":"DO12","extendedAddress":"CP:Dominican Republic-MG-CBS","streetAddress":"Avenida Maximo Gomez #103","poBox":"Villas Agricolas","locality":"Santo Domingo","region":"","postalCode":"1337"},{"worklocation":"DZ01","extendedAddress":"CP:Algeria-Global Exports","streetAddress":"Cite des 126 Logements-Bat. 6","poBox":"# 1 Ain Allah, Dely Brahim","locality":"Algiers","region":"","postalCode":"16000"},{"worklocation":"EC10","extendedAddress":"CP:Ecuador-Guayaquil","streetAddress":"Km 16.5 via a Daule","poBox":"Apartado Postal #09-01-09043","locality":"Guayaquil","region":"","postalCode":"90109043"},{"worklocation":"EC11","extendedAddress":"CP:Ecuador-Guayaquil-CBS","streetAddress":"Km 16.5 via a Daule","poBox":"Apartado Postal #09-01-09043","locality":"Guayaquil","region":"","postalCode":"90109043"},{"worklocation":"EE01","extendedAddress":"CP:Estonia-Tallinn-(Baltics)","streetAddress":"Vilandes Str., No. 12","poBox":"","locality":"Riga","region":"","postalCode":"LV-1010"},{"worklocation":"EG01","extendedAddress":"CP:Egypt-Cairo","streetAddress":"17th Mekkah Street, Kokki","poBox":"","locality":"Cairo","region":"","postalCode":"12311"},{"worklocation":"EG02","extendedAddress":"CP:Egypt-Alexandria","streetAddress":"El Amreya El Mex Road","poBox":"Om Zeighiew, PO Box 43","locality":"Alexandria","region":"","postalCode":""},{"worklocation":"EP70","extendedAddress":"CP:Switzerland- Europe Div HQ","streetAddress":"Grabetsmattweg 1","poBox":"","locality":"Therwil","region":"","postalCode":"CH-4106"},{"worklocation":"EP71","extendedAddress":"CP:Switzerland-AME Div HQ","streetAddress":"Grabetsmattweg 1","poBox":"","locality":"Therwil","region":"","postalCode":"CH-4106"},{"worklocation":"EP72","extendedAddress":"OBS:COP Europe","streetAddress":"","poBox":"","locality":"Geneva","region":"GE","postalCode":""},{"worklocation":"EP74","extendedAddress":"CP:Swiss-Therwil-GTC R\u0026D","streetAddress":"Grabetsmattweg 1","poBox":"","locality":"Therwil","region":"","postalCode":"CH-4106"},{"worklocation":"EPH1","extendedAddress":"Hill's:Switzerland-EU Region","streetAddress":"Grabetsmattweg 1","poBox":"","locality":"Therwil","region":"","postalCode":"CH-4106"},{"worklocation":"ES01","extendedAddress":"CP:Spain-Madrid- ESPANA","streetAddress":"Calle Quintanavides, 19","poBox":"Edificio 4, 4th Planta","locality":"Madrid","region":"","postalCode":"28050"},{"worklocation":"ES02","extendedAddress":"OBS:CP:Spain-Cristasol-Mfg Pla","streetAddress":"","poBox":"","locality":"Madrid","region":"","postalCode":""},{"worklocation":"ES03","extendedAddress":"CP:Spain- Madrid-S.C.A","streetAddress":"Calle Quintanavides, 19","poBox":"Edificio 4, 4th Planta","locality":"Madrid","region":"","postalCode":"28050"},{"worklocation":"ES04","extendedAddress":"OBS:CP:Spain Gbl Mrkt -Barcel","streetAddress":"Josep Pla 2","poBox":"Torres diagonal Litoral B-2","locality":"Barcelona","region":"","postalCode":"08019"},{"worklocation":"ESH1","extendedAddress":"Hill's:Spain-Madrid","streetAddress":"Calle Quintanavides, 19","poBox":"Edificio 4, 3rd Planta - F","locality":"Madrid","region":"","postalCode":"28050"},{"worklocation":"ET01","extendedAddress":"CP:Ethiopia","streetAddress":"House 2483,3rd floor, Room 306","poBox":"Bole Sub City","locality":"Addis Ababa","region":"","postalCode":"4000182"},{"worklocation":"EU00","extendedAddress":"OBS:CP:France-Paris-EU Div","streetAddress":"112 Ave Kleber","poBox":"","locality":"Paris","region":"","postalCode":"75016"},{"worklocation":"EUHA","extendedAddress":"OBS:Hill's Europe","streetAddress":"","poBox":"","locality":"","region":"","postalCode":""},{"worklocation":"FI01","extendedAddress":"OBS:CP-Finland-Helsinki","streetAddress":"Svardvagen 23","poBox":"","locality":"Danderyd","region":"","postalCode":"18215"},{"worklocation":"FI02","extendedAddress":"CP:Finland-Helsinki","streetAddress":"Tarvonsalmenkatu 17","poBox":"","locality":"ESPOO","region":"","postalCode":"FI 02600"},{"worklocation":"FIG1","extendedAddress":"OBS:GABA:Finland-Helsinki-Comm","streetAddress":"Melkonkatu 28 D 5krs","poBox":"","locality":"Helsinki","region":"","postalCode":"FI-00210"},{"worklocation":"FJ10","extendedAddress":"CP:Fiji-Suva","streetAddress":"Lot 1, Wailekutu","poBox":"","locality":"Lami, Suva","region":"","postalCode":""},{"worklocation":"FJ20","extendedAddress":"CP:Fiji-Samoa","streetAddress":"Via Lot 1, Wailekutu","poBox":"","locality":"Lami, Suva","region":"","postalCode":""},{"worklocation":"FR11","extendedAddress":"CP:France-Paris-Colombes-Comm","streetAddress":"9-11 rue du Débarcadère","poBox":"","locality":"Colombes","region":"","postalCode":"92700"},{"worklocation":"FR12","extendedAddress":"OBS:CP:France-Nanterre-I\u0026I","streetAddress":"17,21 Ave des Champs Pierreux","poBox":"","locality":"Nanterre","region":"","postalCode":"92000"},{"worklocation":"FR13","extendedAddress":"CP:France-Paris Colombes-Perfu","streetAddress":"9-11 rue du Débarcadère","poBox":"","locality":"Colombes","region":"","postalCode":"92700"},{"worklocation":"FR14","extendedAddress":"CP:France-Paris Colombes GEX C","streetAddress":"9-11 rue du Débarcadère","poBox":"","locality":"Colombes","region":"","postalCode":"92700"},{"worklocation":"FR15","extendedAddress":"OBS:CP:France-BoisColombes-COP","streetAddress":"17,21 Ave des Champs Pierreux","poBox":"","locality":"Nanterre","region":"","postalCode":"92000"},{"worklocation":"FR16","extendedAddress":"CP:France-Compiegne-Mfg Plant","streetAddress":"60 Ave de Vermandois","poBox":"B. P. 20253","locality":"Compiegne Cedex","region":"","postalCode":"60202"},{"worklocation":"FR21","extendedAddress":"CP:France-Rillieux-Mfg Plant","streetAddress":"600 Avenue de L'Industrie","poBox":"B. P. 121","locality":"Rilleus la Papa Cedex","region":"","postalCode":"69145"},{"worklocation":"FR31","extendedAddress":"CP:France-Paris Colombes-CPII","streetAddress":"9-11 rue du Débarcadère","poBox":"","locality":"Colombes","region":"","postalCode":"92700"},{"worklocation":"FR60","extendedAddress":"CP:France-Paris Colombes-BSC","streetAddress":"9-11 rue du Débarcadère","poBox":"","locality":"Colombes","region":"","postalCode":"92700"},{"worklocation":"FR63","extendedAddress":"CP:France-Paris Colombes AEA","streetAddress":"9-11 rue du Débarcadère","poBox":"","locality":"Colombes","region":"","postalCode":"92700"},{"worklocation":"FR64","extendedAddress":"CP:France-ParisColombes GEX BS","streetAddress":"9-11 rue du Débarcadère","poBox":"","locality":"Colombes","region":"","postalCode":"92700"},{"worklocation":"FR65","extendedAddress":"OBS:CP:France-Gaba","streetAddress":"60 Ave de l'Europe","poBox":"","locality":"Bois-Colombes, Paris","region":"","postalCode":"92270"},{"worklocation":"FR66","extendedAddress":"CP:France-Paris Colombes-CMS","streetAddress":"9-11 rue du Débarcadère","poBox":"","locality":"Colombes","region":"","postalCode":"92700"},{"worklocation":"FR67","extendedAddress":"CP:France-Paris  Colombes-CIC","streetAddress":"9-11 rue du Débarcadère","poBox":"","locality":"Colombes","region":"","postalCode":"92700"},{"worklocation":"FRG1","extendedAddress":"OBS:GABA:France-Paris-BoisCol","streetAddress":"60 Ave de l'Europe","poBox":"","locality":"Bois-Colombes, Paris","region":"","postalCode":"92270"},{"worklocation":"FRH1","extendedAddress":"Hill's:France-Nice/Valbonne","streetAddress":"955 Route des Lucioles","poBox":"Les Ecolucioles A2","locality":"Sophia Antipolis","region":"","postalCode":"06904"},{"worklocation":"GA01","extendedAddress":"CP:Gabon","streetAddress":"Boulevard du bord de mer","poBox":"","locality":"Libreville","region":"","postalCode":""},{"worklocation":"GB01","extendedAddress":"CP:UK-London Guildford-Comm","streetAddress":"Guilford Bus. Pk, Middleton Rd","poBox":"","locality":"Guildford, Surrey","region":"","postalCode":"GU2 8JZ"},{"worklocation":"GB02","extendedAddress":"OBS:CP:UK-Salford-Mfg Plant","streetAddress":"Colgate Lane","poBox":"","locality":"Salford","region":"","postalCode":"M5 3FS"},{"worklocation":"GB41","extendedAddress":"OBS:CP:UK-Salford-Admin UK","streetAddress":"Colgate Lane","poBox":"","locality":"Salford","region":"","postalCode":"M5 3FS"},{"worklocation":"GBH1","extendedAddress":"Hill's:UK-London-Europe HQ","streetAddress":"Guilford Bus. Pk, Middleton Rd","poBox":"","locality":"Guildford, Surrey","region":"","postalCode":"GU2 8JZ"},{"worklocation":"GBH2","extendedAddress":"Hill's:UK-London UK Office","streetAddress":"Guilford Bus. Pk, Middleton Rd","poBox":"","locality":"Guildford, Surrey","region":"","postalCode":"GU2 8JZ"},{"worklocation":"GBH3","extendedAddress":"OBS:Hill's:UK-Watford-East Eur","streetAddress":"Croxley Business Park","poBox":"","locality":" Watford, Herts","region":"","postalCode":"WD18 8WX"},{"worklocation":"GE01","extendedAddress":"OBS:CP:Georgia","streetAddress":"flat 14,11 Chavchavadze Street","poBox":"","locality":"Tbilisi","region":"","postalCode":""},{"worklocation":"GE02","extendedAddress":"CP:Georgia","streetAddress":"flat 14,11 Chavchavadze Street","poBox":"","locality":"Tbilisi","region":"","postalCode":""},{"worklocation":"GF01","extendedAddress":"OBS:CP:French Guyana","streetAddress":"Route deRaban","poBox":"Lotissement Calimbe III","locality":"Cayenne","region":"","postalCode":"97300"},{"worklocation":"GH01","extendedAddress":"CP:Ghana","streetAddress":"14 Senchi Street","poBox":"Airport Residential","locality":"Accra","region":"","postalCode":""},{"worklocation":"GP01","extendedAddress":"CP:Guadaloupe Branch","streetAddress":"Immeuble Emeraude Blvd de Houe","poBox":"Zone Industrielle de Jarry","locality":"Baie-Mahault","region":"GP","postalCode":"97122"},{"worklocation":"GR01","extendedAddress":"CP:Greece-Athens-Commercial","streetAddress":"89, Athinon Street","poBox":"","locality":"Piraeus","region":"","postalCode":"185 41"},{"worklocation":"GR40","extendedAddress":"CP:Greece-Athens-Mfg","streetAddress":"89, Athinon Street","poBox":"","locality":"Piraeus","region":"","postalCode":"185 41"},{"worklocation":"GR60","extendedAddress":"CP:Greece-Athens-Services","streetAddress":"89, Athinon Street","poBox":"","locality":"Piraeus","region":"","postalCode":"185 41"},{"worklocation":"GRH1","extendedAddress":"Hill's:Greece-Athens","streetAddress":"89, Athinon Street","poBox":"","locality":"Piraeus","region":"","postalCode":"185 41"},{"worklocation":"GT10","extendedAddress":"CP:Central America-SSO","streetAddress":"Avenida del Ferrocarril 49-65","poBox":"Zona 12","locality":"Guatemala City","region":"","postalCode":"01012"},{"worklocation":"GT11","extendedAddress":"CP:Central America-SSO-CBS","streetAddress":"Avenida del Ferrocarril 49-65","poBox":"Zona 12","locality":"Guatemala City","region":"","postalCode":"01012"},{"worklocation":"GT20","extendedAddress":"CP:Guatemala-GT","streetAddress":"Avenida del Ferrocarril 49-65","poBox":"Zona 12","locality":"Guatemala City","region":"","postalCode":"01012"},{"worklocation":"GY20","extendedAddress":"CP:Guyana","streetAddress":"","poBox":"","locality":"","region":"","postalCode":""},{"worklocation":"HK01","extendedAddress":"OBS:CP Hong Kong Pers Area","streetAddress":"28 Yun Ping Rd, CausewayBay","poBox":"","locality":"Hong Kong","region":"","postalCode":""},{"worklocation":"HK02","extendedAddress":"CP:Hong Kong-Hawley\u0026Hazel","streetAddress":"45, Wong Chuk Hang Road","poBox":"","locality":"Aberdeen","region":"","postalCode":""},{"worklocation":"HKA1","extendedAddress":"CP:Hong Kong-CPHK","streetAddress":"52/F \u0026 4908-10,HopeWell Center","poBox":"183 Queen's Rd East","locality":"Wanchai, Hong Kong","region":"","postalCode":"999077"},{"worklocation":"HKA2","extendedAddress":"CP:Hong Kong-CPAP","streetAddress":"52/F \u0026 4908-10,HopeWell Center","poBox":"183 Queen's Rd East","locality":"Wanchai,Hong Kong","region":"","postalCode":"999077"},{"worklocation":"HKA3","extendedAddress":"CP:Hong Kong-CPAP","streetAddress":"183 Queen's Rd East","poBox":"52/F \u0026 4908-10,HopeWell Center","locality":"Wanchai,Hong Kong","region":"","postalCode":"999077"},{"worklocation":"HKB1","extendedAddress":"OBS:HK Warehouse","streetAddress":"","poBox":"","locality":"","region":"","postalCode":""},{"worklocation":"HKH1","extendedAddress":"OBS:Hill's:Hong Kong","streetAddress":"23/F, Causeway Bay Plaza 1","poBox":"489 Hennessy Road","locality":"Causeway Bay, Hong Kong","region":"","postalCode":""},{"worklocation":"HKH2","extendedAddress":"Hill's:Hong Kong","streetAddress":"52/F, Hopewell Centre","poBox":"183 Queen's Rd East","locality":"Hong Kong","region":"004","postalCode":"999077"},{"worklocation":"HN20","extendedAddress":"CP:Honduras-HN","streetAddress":"Colonia Palmira,segunda calle,","poBox":"Casa # 2244","locality":"Tegucigalpa","region":"","postalCode":""},{"worklocation":"HR01","extendedAddress":"CP:Croatia (Adria)","streetAddress":"Iblerov trg 10","poBox":"","locality":"Zagreb","region":"","postalCode":"10000"},{"worklocation":"HU01","extendedAddress":"CP:Hungary-Budapest-HQ","streetAddress":"Hauszmann Alajos utca 3/A","poBox":"","locality":"Budapest","region":"","postalCode":"1117"},{"worklocation":"HU02","extendedAddress":"OBS:CP:Hungary-Dorog-Plant","streetAddress":"Esztergomi u. 27","poBox":"","locality":"Dorog","region":"","postalCode":"2510"},{"worklocation":"HUH1","extendedAddress":"OBS:Hill's:Hungary-Budapest","streetAddress":"Hauszmann Alajos utca 3/A","poBox":"","locality":"Budapest","region":"","postalCode":"1117"},{"worklocation":"ID01","extendedAddress":"CP:Indonesia-Jakarta","streetAddress":"Colgate Palmolive Indonesia,","poBox":"JL.Panti Asuhan, No.2","locality":"Jakarta","region":"27","postalCode":"13340"},{"worklocation":"IE01","extendedAddress":"CP:Ireland-Dublin-Comm","streetAddress":"Unit 3054, Lake Drive","poBox":"Citywest Business Campus","locality":"Dublin","region":"","postalCode":"24"},{"worklocation":"IE02","extendedAddress":"CP:Ireland (EASSO)-Dublin","streetAddress":"Unit 3054, Lake Drive","poBox":"Citywest Business Campus","locality":"Dublin","region":"","postalCode":"24"},{"worklocation":"IEH1","extendedAddress":"Hill's:Ireland-Dublin","streetAddress":"Unit 3054, Lake Drive","poBox":"Citywest Business Campus","locality":"Dublin","region":"","postalCode":"24"},{"worklocation":"IL60","extendedAddress":"CP:Israel","streetAddress":"Tel Aviv-BSC","poBox":"Tel Aviv-BSC","locality":"","region":"","postalCode":""},{"worklocation":"IN10","extendedAddress":"OBS:SEWREE PLANT","streetAddress":"","poBox":"","locality":"","region":"","postalCode":""},{"worklocation":"IN11","extendedAddress":"CP:India-Aurangabad Plant","streetAddress":"Plot No. B 14/150","poBox":"M.I.D.C. Waluj Ind Area","locality":"Aurangabad","region":"","postalCode":"431 136"},{"worklocation":"IN12","extendedAddress":"OBS:CAMELOT PLANT","streetAddress":"","poBox":"","locality":"","region":"","postalCode":""},{"worklocation":"IN14","extendedAddress":"CP:India-Mumbai Head Office","streetAddress":"Main St, Hiranandani Gardens","poBox":"Powai","locality":"Mumbai, Maharashtra State","region":"","postalCode":"400 076"},{"worklocation":"IN15","extendedAddress":"CP:India-Baddi Plant","streetAddress":"Plot No. 78, EPIP Phase 1","poBox":"Jharmajri,Baddi,PO Barotiwala","locality":"Solan","region":"","postalCode":"174103"},{"worklocation":"IN16","extendedAddress":"CP:India-Goa Plant","streetAddress":"Plot No. 154,158 \u0026 160.","poBox":"Goa Plant","locality":"Kundaim Ind.  Estate  Goa","region":"","postalCode":"403115"},{"worklocation":"IN17","extendedAddress":"CP:India- Sanand Plant","streetAddress":"GIDC,Plot No SM2,","poBox":"Sanand Ph-II Industrial Estate","locality":"Taluka Sanand,Ahmedabad","region":"","postalCode":""},{"worklocation":"IN18","extendedAddress":"OBS:CP:India-Mumbai-GSSO","streetAddress":"Main St, Hiranandani Gardens","poBox":"Powai","locality":"Mumbai, Maharashtra State","region":"","postalCode":"400 076"},{"worklocation":"IN19","extendedAddress":"CP:India-Sricity Plant","streetAddress":"Sector 24,Sri City","poBox":"6000 Central Expressway","locality":"Chittoor District","region":"01","postalCode":"517588"},{"worklocation":"IN20","extendedAddress":"CP:India:Mumbai:GIT","streetAddress":"9\u002610 Flr,Tower B,L\u0026T Bsnes Pk","poBox":"L\u0026T Gate 5,SakiVihar Rd,Powai","locality":"Mumbai","region":"13","postalCode":"400072"},{"worklocation":"IN21","extendedAddress":"CP:India:Mumbai:CBS","streetAddress":"9\u002610 Flr,Tower B,L\u0026T Bsnes Pk","poBox":"L\u0026T Gate 5,SakiVihar Rd,Powai","locality":"Mumbai","region":"13","postalCode":"400072"},{"worklocation":"IN62","extendedAddress":"OBS:CALCUTTA WAREHOUSE","streetAddress":"","poBox":"","locality":"","region":"","postalCode":""},{"worklocation":"IN64","extendedAddress":"OBS:MADRAS WAREHOUSE","streetAddress":"","poBox":"","locality":"","region":"","postalCode":""},{"worklocation":"IN70","extendedAddress":"CP:India-Mumbai Branch","streetAddress":"Main St, Hiranandani Gardens","poBox":"Powai","locality":"Mumbai, Maharashtra State","region":"","postalCode":"400 076"},{"worklocation":"IN71","extendedAddress":"CP:India-Chennai Branch","streetAddress":"Qaiser Towers, 2nd Floor","poBox":"K.Nawaz Khan Rd,Nungambakkam","locality":"Chennai","region":"","postalCode":"600006"},{"worklocation":"IN72","extendedAddress":"CP:India-Kolkata Branch","streetAddress":"9th Floor,Vasundhara Building,","poBox":"2/7, Sarat Bose Road,","locality":"Kolkatta","region":"","postalCode":"700020"},{"worklocation":"IN73","extendedAddress":"CP:India-Delhi Branch","streetAddress":"3rd floor, Enkay Towers,","poBox":"Udyog Vihar, Phase 5","locality":"Gurgaon","region":"","postalCode":"122016"},{"worklocation":"IN82","extendedAddress":"OBS:CP:India-Bhiwandi W/H","streetAddress":"","poBox":"","locality":"","region":"","postalCode":""},{"worklocation":"IN99","extendedAddress":"OBS:CP:India-Nepal","streetAddress":"Hetauda Ind Dist Ward No. 8","poBox":"","locality":"Nepal, Kathmandu","region":"","postalCode":""},{"worklocation":"IQ01","extendedAddress":"OBS:CP:Iraq","streetAddress":"","poBox":"","locality":"","region":"IQ","postalCode":""},{"worklocation":"IR01","extendedAddress":"OBS:CP Iran","streetAddress":"","poBox":"","locality":"","region":"","postalCode":""},{"worklocation":"IT01","extendedAddress":"CP:Italy-Rome-BSC","streetAddress":"Via Alexandre Gustave Eiffel15","poBox":"","locality":"Rome","region":"","postalCode":"00148"},{"worklocation":"IT02","extendedAddress":"CP:Italy-Anzio-Mfg Plant","streetAddress":"Viale Palmolive, 18","poBox":"","locality":"Anzio","region":"RM","postalCode":"00042"},{"worklocation":"IT03","extendedAddress":"CP:Italy-Rome-Commercial","streetAddress":"Via Alexandre Gustave Eiffel15","poBox":"","locality":"Rome","region":"","postalCode":"00148"},{"worklocation":"IT04","extendedAddress":"OBS:CP:Italy-Anzio-Commercial","streetAddress":"Viale Palmolive, 18","poBox":"","locality":"Anzio","region":"","postalCode":"00042"},{"worklocation":"IT05","extendedAddress":"OBS:CP:Italy-Rome-Mfg Plant","streetAddress":"Via Alexandre Gustave Eiffel15","poBox":"","locality":"Rome","region":"","postalCode":"00148"},{"worklocation":"IT60","extendedAddress":"CP:Italy-Anzio- BSC","streetAddress":"Viale Palmolive, 18","poBox":"","locality":"Anzio","region":"","postalCode":"00042"},{"worklocation":"ITG1","extendedAddress":"OBS:GABA:Italy-Rome","streetAddress":"Via Alexandre Gustave Eiffel15","poBox":"","locality":"Rome","region":"","postalCode":"00148"},{"worklocation":"ITH1","extendedAddress":"Hill's:Italy-Rome- SpA","streetAddress":"Via Alexandre Gustave Eiffel15","poBox":"","locality":"Rome","region":"","postalCode":"00148"},{"worklocation":"ITH2","extendedAddress":"Hill's:Italy-Rome- SrL","streetAddress":"Via Alexandre Gustave Eiffel15","poBox":"","locality":"Rome","region":"","postalCode":"00148"},{"worklocation":"JM20","extendedAddress":"CP:Jamaica","streetAddress":"216 Marcus Garvey Drive","poBox":"","locality":"Kingston 11","region":"JM","postalCode":""},{"worklocation":"JPHA","extendedAddress":"Hill's:Japan-Tokyo","streetAddress":"5-25, Nibancho","poBox":"","locality":"Chiyoda-ku, Tokyo","region":"","postalCode":"102-0084"},{"worklocation":"JPHB","extendedAddress":"OBS:Hill's Asia","streetAddress":"","poBox":"","locality":"","region":"","postalCode":""},{"worklocation":"JPHC","extendedAddress":"OBS:Hill's:Japan-Tokyo-AP Bra","streetAddress":"5-25, Nibancho","poBox":"","locality":"Chiyoda-ku, Tokyo","region":"","postalCode":"102-0084"},{"worklocation":"KE01","extendedAddress":"CP:Kenya","streetAddress":"P.O. Box 30264","poBox":"","locality":"Nairobi","region":"","postalCode":"00100"},{"worklocation":"KG01","extendedAddress":"OBS:CP:Kyrgyzstan-Bishkek","streetAddress":"Str. 7 Chaikovskogo","poBox":"","locality":"Bishkek","region":"","postalCode":"720027"},{"worklocation":"KH01","extendedAddress":"CP:Cambodia","streetAddress":"# 65, St 242, Chaktomuk Commun","poBox":"Daun Penh District,","locality":"Phnom Penh","region":"","postalCode":""},{"worklocation":"KRH1","extendedAddress":"Hill's:South Korea-Seoul","streetAddress":"Samseong-dong, 27th Fl","poBox":"511 Yeongdong-daero","locality":"Gangnam-gu, Seoul","region":"","postalCode":"135-729"},{"worklocation":"KS01","extendedAddress":"OBS:CP:Kosovo","streetAddress":"","poBox":"","locality":"","region":"","postalCode":""},{"worklocation":"KZ01","extendedAddress":"CP:Kazakhstan","streetAddress":"132, Dostyk Avenue","poBox":"Office #39, 2nd Fl","locality":"Almaty","region":"","postalCode":"050051"},{"worklocation":"KZ02","extendedAddress":"OBS:CP:Kazakhstan-NX01","streetAddress":"132, Dostyk Avenue","poBox":"Office #39, 2nd Fl","locality":"Almaty","region":"","postalCode":"050051"},{"worklocation":"LA01","extendedAddress":"CP:Laos","streetAddress":"No.342  Unit 10  Bann. Dondaen","poBox":"Chanthabouly District","locality":"Vientiane","region":"","postalCode":""},{"worklocation":"LAHA","extendedAddress":"OBS:Hill's Latin America","streetAddress":"","poBox":"","locality":"","region":"","postalCode":""},{"worklocation":"LB01","extendedAddress":"CP:Lebanon-Beirut","streetAddress":"","poBox":"","locality":"","region":"","postalCode":""},{"worklocation":"LT01","extendedAddress":"CP:Lithuania-Vilnius (Baltics","streetAddress":"Vilandes Str., No. 12","poBox":"","locality":"Riga","region":"","postalCode":"LV-1010"},{"worklocation":"LV01","extendedAddress":"OBS:CP:Latvia-Riga (Baltics)","streetAddress":"Duntes Str. 23a","poBox":"","locality":"Riga","region":"","postalCode":"LV-1005"},{"worklocation":"LV02","extendedAddress":"CP:Latvia-Riga (Baltics)","streetAddress":"Duntes Str. 23a","poBox":"","locality":"Riga","region":"","postalCode":"LV-1005"},{"worklocation":"MA01","extendedAddress":"CP:Morocco","streetAddress":"Rue Fatima Bent M'Barek","poBox":"B.P. 7565","locality":"Casablanca","region":"","postalCode":"20600"},{"worklocation":"ME01","extendedAddress":"OBS:CP:Montenegro (Adria)","streetAddress":"Omladinskih brigada 102","poBox":"","locality":"Belgrade","region":"","postalCode":"11070"},{"worklocation":"MG01","extendedAddress":"CP:Madagascar","streetAddress":"Netter, Antananarivo","poBox":"Netter, Antananarivo","locality":"Ankorondrano","region":"","postalCode":"4000188"},{"worklocation":"MK01","extendedAddress":"CP:Macedonia (Adria)","streetAddress":"Bulevar Vojvodina 4","poBox":"","locality":"Skopje","region":"","postalCode":"1000"},{"worklocation":"ML01","extendedAddress":"CP:Mali","streetAddress":"Rus Achkabad Porte 174Somakoff","poBox":"Rus Achkabad Porte 174Somakoff","locality":"Bamako","region":"","postalCode":"4000179"},{"worklocation":"MM01","extendedAddress":"CP:Myanmar-Commercial","streetAddress":"Flat 39/1\u002639/2, Strand Mansion","poBox":"No. 24,39th street","locality":"Yangon","region":"","postalCode":""},{"worklocation":"MM02","extendedAddress":"CP:Myanmar-Plant","streetAddress":"No.(101) Cherry Street","poBox":"Industrial Zone (1)","locality":"Yangon","region":"","postalCode":""},{"worklocation":"MN01","extendedAddress":"OBS:CP:Mongolia","streetAddress":"Chingis Ave.,Khan-Uul district","poBox":"","locality":"Ulaanbaatar-36,","region":"","postalCode":""},{"worklocation":"MQ01","extendedAddress":"CP:Martinique Branch","streetAddress":"Immeuble les Paletuviers","poBox":"Z.I. La Levarde","locality":"Le Lamentin","region":"MQ","postalCode":"97232"},{"worklocation":"MW01","extendedAddress":"CP:Malawi","streetAddress":"Old Import \u0026 Export Wse","poBox":"Mcleod Road","locality":"Blantyre","region":"","postalCode":""},{"worklocation":"MX00","extendedAddress":"CP:Mexico-DF-CBS","streetAddress":"Av. Ejercito Nacional Mexicano","poBox":"843-B, Piso 6. Col. Granada,","locality":"Del.Miguel Hidalgo","region":"DF","postalCode":"11520"},{"worklocation":"MX10","extendedAddress":"CP:Mexico - DF","streetAddress":"Av. Ejercito Nacional Mexicano","poBox":"843-B, Piso 6, Col. Granada","locality":"Del.Miguel Hidalgo","region":"DF","postalCode":"11520"},{"worklocation":"MX11","extendedAddress":"CP:Mexico (Mission Hills)","streetAddress":"Av. Bicentenario 374","poBox":"Km 0.5 Carr a SJI","locality":"San Jose Iturbide","region":"GTO","postalCode":"37980"},{"worklocation":"MX12","extendedAddress":"CP:Mexico-Culiacan","streetAddress":"Av. Insurgentes 847 Sur 401A","poBox":"","locality":"Culiacan","region":"SIN","postalCode":"80220"},{"worklocation":"MX13","extendedAddress":"CP:Mexico-Guadalajara","streetAddress":"Edificio Campo Polo 4to piso","poBox":"Av.LMateos  Sur1480-Chapalita","locality":"Guadalajara","region":"JAL","postalCode":"45040"},{"worklocation":"MX14","extendedAddress":"CP:Mexico-Merida","streetAddress":"Calle 1-C # 329 X 42 Y 44","poBox":"Fraccionamiento Campestre","locality":"Merida","region":"YUC","postalCode":"97120"},{"worklocation":"MX15","extendedAddress":"CP:Mexico-DF-Estrellas Colgate","streetAddress":"Calzada de las Aguilas # 3116","poBox":"Fraccionamiento Villa Verdun","locality":"Del. Alvaro Obregon","region":"DF","postalCode":"01810"},{"worklocation":"MX16","extendedAddress":"OBS:CP:Mexico-DF-Tultitlan","streetAddress":"Estado de Mexico","poBox":"Col. San Antonio Tultitlan","locality":"Estado de Mexico","region":"MEX","postalCode":"54900"},{"worklocation":"MX17","extendedAddress":"CP:Mexico-Monterrey","streetAddress":"Los Soles Av. L Cardenas 2400A","poBox":"NaveA local51-2-Res.Sn Agustin","locality":"San Pedro Garza Garcia","region":"NL","postalCode":"66267"},{"worklocation":"MX18","extendedAddress":"CP:Mexico-Field Sales","streetAddress":"","poBox":"","locality":"","region":"","postalCode":""},{"worklocation":"MX19","extendedAddress":"CP:Mexico-Macrocentro","streetAddress":"Km .340 Carr.San Jose Iturbide","poBox":"La Cinta","locality":"San Jose Iturbide","region":"GTO","postalCode":"37980"},{"worklocation":"MX20","extendedAddress":"OBS:CP:Mexico - INCREA TULTITL","streetAddress":"Ave Tepalcapa no. 8, Colonia S","poBox":"","locality":"Tultitlán Estado de Méxic","region":"MEX","postalCode":"54900"},{"worklocation":"MX21","extendedAddress":"OBS:San José Iturbide","streetAddress":"Km. 48 de la Carretera 57 a S.","poBox":"","locality":"San José Iturbide","region":"","postalCode":"37980"},{"worklocation":"MX22","extendedAddress":"OBS:Barrientos","streetAddress":"Prolongacion Hidalgo No. 62","poBox":"","locality":"Tlalnepantla","region":"","postalCode":"54010"},{"worklocation":"MX23","extendedAddress":"OBS:Guadalajara","streetAddress":"Paseo del Valle No. 5200, Edif","poBox":"","locality":"Zapopan","region":"","postalCode":"45010"},{"worklocation":"MX24","extendedAddress":"OBS:CP:Mexico - INCREA MONTERR","streetAddress":"Ave López Mateos no. 4118-B,","poBox":"","locality":"Monterrey Nuevo León","region":"","postalCode":"C.P. 66420"},{"worklocation":"MX25","extendedAddress":"OBS:Mérida","streetAddress":"Av. Palma Real Tablaje Catastr","poBox":"","locality":"Mérida","region":"","postalCode":"97390"},{"worklocation":"MX26","extendedAddress":"OBS:Chihuahua","streetAddress":"Av. Lus G. Urbina Esq. Av Octa","poBox":"","locality":"Chihuahua","region":"","postalCode":"31109"},{"worklocation":"MX28","extendedAddress":"OBS:Mexicali","streetAddress":"Blvd. Lazaro Cardenas No. 4050","poBox":"","locality":"Mexicali","region":"","postalCode":"21600"},{"worklocation":"MX29","extendedAddress":"CP:Mexico (Mission Hills)-CBS","streetAddress":"Av. Bicentenario 374","poBox":"Km 0.5 Carr a SJI","locality":"San Jose Iturbide","region":"GTO","postalCode":"37980"},{"worklocation":"MX32","extendedAddress":"OBS:Guanajuato","streetAddress":"Bodegas 10, 11, 12 y 13, Acces","poBox":"","locality":"Querétaro","region":"","postalCode":"76160"},{"worklocation":"MX45","extendedAddress":"OBS:Rhodia","streetAddress":"Calle San Rafael No. 12","poBox":"","locality":"Lerma","region":"","postalCode":""},{"worklocation":"MX90","extendedAddress":"OBS:Tienda Empleados DF","streetAddress":"Presa La Angostura No. 225","poBox":"","locality":"Mexico","region":"","postalCode":"11500"},{"worklocation":"MX91","extendedAddress":"OBS:Tienda Empleados MH","streetAddress":"Carr. Fed. #57, Km 47 Carr. En","poBox":"","locality":"San José Iturbide","region":"","postalCode":"37980"},{"worklocation":"MXH1","extendedAddress":"Hill's:Mexico - DF","streetAddress":"Av. Ejercito Nacional Mexicano","poBox":"843-B, Piso 6, Col. Granada","locality":"Del.Miguel Hidalgo","region":"DF","postalCode":"11520"},{"worklocation":"MY02","extendedAddress":"OBS:CP Marketing Personnel Are","streetAddress":"","poBox":"","locality":"PJ","region":"","postalCode":"50734"},{"worklocation":"MY10","extendedAddress":"CP:Malaysia-PJ-Sub","streetAddress":"Jalan Semangat/Jalan Bersatu","poBox":"Section 13","locality":"Petaling Jaya, Selangor","region":"","postalCode":"46200"},{"worklocation":"MY1A","extendedAddress":"CP:Malaysia-PJ-NonSub","streetAddress":"Jalan Semangat/Jalan Bersatu","poBox":"Section 13","locality":"Petaling Jaya, Selangor","region":"","postalCode":"46200"},{"worklocation":"MY1B","extendedAddress":"CP:Malaysia-Field Sls-MYMISC","streetAddress":"","poBox":"","locality":"","region":"","postalCode":""},{"worklocation":"MY50","extendedAddress":"CP:Malaysia-PJ-CPM","streetAddress":"Jalan Semangat/Jalan Bersatu","poBox":"Section 13","locality":"Petaling Jaya, Selangor","region":"","postalCode":"46200"},{"worklocation":"MY51","extendedAddress":"CP:Malaysia-Field Sales-West","streetAddress":"","poBox":"","locality":"","region":"","postalCode":""},{"worklocation":"MY52","extendedAddress":"OBS:BUTTERWORTH","streetAddress":"","poBox":"","locality":"","region":"","postalCode":""},{"worklocation":"MY53","extendedAddress":"OBS:IPOH","streetAddress":"","poBox":"","locality":"","region":"","postalCode":""},{"worklocation":"MY55","extendedAddress":"OBS:KUANTAN","streetAddress":"","poBox":"","locality":"","region":"","postalCode":""},{"worklocation":"MY56","extendedAddress":"OBS:KOTA BARU","streetAddress":"","poBox":"","locality":"","region":"","postalCode":""},{"worklocation":"MY57","extendedAddress":"OBS:MELAKA","streetAddress":"","poBox":"","locality":"","region":"","postalCode":""},{"worklocation":"MY58","extendedAddress":"OBS:JOHOR BARU","streetAddress":"","poBox":"","locality":"","region":"","postalCode":""},{"worklocation":"MY5A","extendedAddress":"CP:Malaysia-PJ-APSSO","streetAddress":"Jalan Semangat/Jalan Bersatu","poBox":"Section 13","locality":"Petaling Jaya, Selangor","region":"","postalCode":"46200"},{"worklocation":"MY61","extendedAddress":"CP:Malaysia-Field Sales-East","streetAddress":"","poBox":"","locality":"","region":"","postalCode":""},{"worklocation":"MY62","extendedAddress":"OBS:SIBU","streetAddress":"","poBox":"","locality":"","region":"","postalCode":""},{"worklocation":"MY63","extendedAddress":"OBS:MIRI","streetAddress":"","poBox":"","locality":"","region":"","postalCode":""},{"worklocation":"MY65","extendedAddress":"OBS:KOTA KINABALU","streetAddress":"","poBox":"","locality":"","region":"","postalCode":""},{"worklocation":"MY66","extendedAddress":"OBS:SANDAKAN","streetAddress":"","poBox":"","locality":"","region":"","postalCode":""},{"worklocation":"MY67","extendedAddress":"OBS:TAWAU","streetAddress":"","poBox":"","locality":"","region":"","postalCode":""},{"worklocation":"MYID","extendedAddress":"CP:Malaysia-Fld Sls-Indonesia","streetAddress":"","poBox":"","locality":"","region":"","postalCode":""},{"worklocation":"MZ01","extendedAddress":"CP:Mozambique","streetAddress":"De Angola 272","poBox":"","locality":"Maputo","region":"","postalCode":""},{"worklocation":"NA01","extendedAddress":"OBS:CP Namibia AME","streetAddress":"","poBox":"","locality":"","region":"","postalCode":""},{"worklocation":"NC01","extendedAddress":"CP:New Caledonia","streetAddress":"59 Rue F. Forest","poBox":"BP 600","locality":"Noumea","region":"NC","postalCode":"98845"},{"worklocation":"NG01","extendedAddress":"CP:Nigeria","streetAddress":"3rd Floor, NECA House,","poBox":"Plot A2, Hakeem Balogun Street","locality":"Alasusa,Ikeja","region":"LA","postalCode":""},{"worklocation":"NI20","extendedAddress":"CP:Nicaragua-NI","streetAddress":"Km 11.4 Carretera Nueva a Leon","poBox":"","locality":"Managua","region":"","postalCode":""},{"worklocation":"NL01","extendedAddress":"CP:Netherlands-Weesp-Comm","streetAddress":"Leeuwenveldseweg 3F","poBox":"","locality":"Weesp","region":"","postalCode":"1382 LV"},{"worklocation":"NL03","extendedAddress":"OBS:CP:Netherlands-Sanex R\u0026D","streetAddress":"Leeuwenveldseweg 5F","poBox":"","locality":"Weesp","region":"","postalCode":"1382 LV"},{"worklocation":"NLG1","extendedAddress":"OBS: GABA:Netherlands","streetAddress":"Leeuwenveldseweg 5N","poBox":"","locality":"Weesp","region":"","postalCode":"1382 LV"},{"worklocation":"NLH1","extendedAddress":"Hill's:Netherlands-BLX-Breda","streetAddress":"Westbroek 60-62","poBox":"","locality":"Breda","region":"","postalCode":"4822 ZW"},{"worklocation":"NLH2","extendedAddress":"Hill's:Netherlands-EL-Plant","streetAddress":"Zeedijk 23","poBox":"","locality":"Etten Leur","region":"","postalCode":"4871 NM"},{"worklocation":"NLH3","extendedAddress":"OBS:Hill's:Netherlands-EL-13.0","streetAddress":"Zeedijk 23 -4871 NM Etten Leur","poBox":"","locality":"Etten Leur","region":"","postalCode":"4870 AM"},{"worklocation":"NLH4","extendedAddress":"OBS:Hill's:Netherlands-EL-CSL","streetAddress":"Zeedijk 23","poBox":"","locality":"Etten Leur","region":"","postalCode":"4871 NM"},{"worklocation":"NLH5","extendedAddress":"Hill's:Netherlands--Breda-CP","streetAddress":"Westbroek 60-62","poBox":"","locality":"Breda","region":"","postalCode":"4822 ZW"},{"worklocation":"NO01","extendedAddress":"CP:Norway-Lysaker","streetAddress":"Vollsveien 13 B","poBox":"","locality":"Lysaker","region":"","postalCode":"1366"},{"worklocation":"NOH1","extendedAddress":"Hill's:Norway","streetAddress":"Vollsveien 13 B","poBox":"","locality":"Lysaker","region":"","postalCode":"1366"},{"worklocation":"NZ10","extendedAddress":"CP:New Zealand-Wellington","streetAddress":"Westfield Tower, 45 Knights Rd","poBox":"","locality":"Lower Hutt, Wellington","region":"","postalCode":"5045"},{"worklocation":"NZ20","extendedAddress":"OBS:CP:New Zealand-Seaview","streetAddress":"11-13 Barnes St","poBox":"Seaview","locality":"Wellington","region":"","postalCode":""},{"worklocation":"NZ30","extendedAddress":"CP:New Zealand-Auckland","streetAddress":"Central Park Corp Ctr, Bldg 10","poBox":"Lvl 5, 666 Great South Road","locality":"Greenlane, Auckland","region":"","postalCode":"1642"},{"worklocation":"NZ40","extendedAddress":"CP:New Zealand-Christchurch","streetAddress":"Westfield Tower, 45 Knights Rd","poBox":"","locality":"Lower Hutt, Wellington","region":"","postalCode":"5045"},{"worklocation":"NZH1","extendedAddress":"Hill's:New Zealand","streetAddress":"Central Park Corp Ctr. Bldg 10","poBox":"Lvl 5, 666 Great South Road","locality":"Greenlane, Auckland","region":"","postalCode":"1642"},{"worklocation":"PA20","extendedAddress":"CP:Panama-PA","streetAddress":"P.O. Box 0819-05220","poBox":"","locality":"Betania","region":"","postalCode":""},{"worklocation":"PE01","extendedAddress":"CP:Peru-Lima","streetAddress":"Grimaldo Del Solar 346","poBox":"Miraflores","locality":"Lima","region":"","postalCode":"18"},{"worklocation":"PE10","extendedAddress":"OBS:CP Rimac Plant","streetAddress":"Jr Fausto Gastaneta 154","poBox":"","locality":"Lima 25","region":"","postalCode":""},{"worklocation":"PE20","extendedAddress":"OBS:CP Callao Dist Center","streetAddress":"Jr Pacifico No. 482","poBox":"","locality":"Callao 3","region":"","postalCode":""},{"worklocation":"PF01","extendedAddress":"CP:French Polynesia-Tahiti","streetAddress":"P.K. 4.5 Cote Montagne","poBox":"BP 14168","locality":"Arue","region":"","postalCode":"98701"},{"worklocation":"PG10","extendedAddress":"CP:Papua New Guinea-Lae","streetAddress":"1 Seagull Street","poBox":"","locality":"Voco Point, Lae","region":"","postalCode":"411"},{"worklocation":"PG20","extendedAddress":"CP:Papua New Guinea-Pt Moresby","streetAddress":"Level 2, SVS Bldg,Harbour City","poBox":"","locality":"Konedobu, Port Moresby","region":"","postalCode":""},{"worklocation":"PH10","extendedAddress":"CP:Philippines - Taguig","streetAddress":"22 Upper McKinley Road","poBox":"Fort Bonifacio","locality":"Taguig City","region":"","postalCode":"1634"},{"worklocation":"PH50","extendedAddress":"OBS:Pasig","streetAddress":"","poBox":"","locality":"","region":"","postalCode":""},{"worklocation":"PL01","extendedAddress":"CP:Poland-Warsaw HQ","streetAddress":"ul. Wybrzeze Gdynskie 6D","poBox":"Athina Park","locality":"Warsaw","region":"","postalCode":"01-531"},{"worklocation":"PL02","extendedAddress":"OBS:CP:Poland-Halinow Plant","streetAddress":"ul. Hipolitowska 32","poBox":"","locality":"Halinow","region":"","postalCode":"05-074"},{"worklocation":"PL40","extendedAddress":"CP:Poland-Swidnica Plant","streetAddress":"Aleja Colgate 2","poBox":"","locality":"Swidnica","region":"PL","postalCode":"58-100"},{"worklocation":"PL41","extendedAddress":"OBS:CP:Poland-Halinow Plant","streetAddress":"ul. Hipolitowska 32","poBox":"","locality":"Halinow","region":"PL","postalCode":"05-074"},{"worklocation":"PL60","extendedAddress":"CP:Poland-Warsaw- BSC","streetAddress":"ul. Tasmowa 7","poBox":"","locality":"Warsaw","region":"","postalCode":"02-677"},{"worklocation":"PL61","extendedAddress":"CP:Poland-Warsaw Serv. CBS","streetAddress":"ul. Tasmowa 7","poBox":"","locality":"Warsaw","region":"","postalCode":"02-677"},{"worklocation":"PL62","extendedAddress":"CP:Poland-Swidnica-BSC","streetAddress":"Aleja Colgate 2","poBox":"","locality":"Swidnica","region":"","postalCode":"58-100"},{"worklocation":"PLH1","extendedAddress":"Hill's:Poland","streetAddress":"ul. Wybrzeze Gdynskie 6D","poBox":"Athina Park","locality":"Warsaw","region":"","postalCode":"01-531"},{"worklocation":"PR01","extendedAddress":"CP:Puerto Rico-Metro","streetAddress":"PO Box 363865","poBox":"","locality":"San Juan","region":"PR","postalCode":"00936-3865"},{"worklocation":"PR02","extendedAddress":"OBS:Puerto Rico: Guayama","streetAddress":"","poBox":"","locality":"","region":"PR","postalCode":""},{"worklocation":"PR03","extendedAddress":"OBS:Puerto Rico: Juncos","streetAddress":"","poBox":"","locality":"","region":"","postalCode":""},{"worklocation":"PR04","extendedAddress":"CP:Puerto Rico-IES Enterprise","streetAddress":"Road 31 No. 100","poBox":"","locality":"San Juan","region":"","postalCode":"00777-3802"},{"worklocation":"PR05","extendedAddress":"CP:Caricom-Puerto Rico","streetAddress":"PO Box 363865","poBox":"","locality":"San Juan","region":"PR","postalCode":"00936-3865"},{"worklocation":"PR06","extendedAddress":"CP:Caricom-Puerto Rico-CBS","streetAddress":"PO Box 363865","poBox":"","locality":"San Juan","region":"PR","postalCode":"00936-3865"},{"worklocation":"PRH1","extendedAddress":"OBS:Hill's:Puerto Rico","streetAddress":"PO Box 363865","poBox":"","locality":"San Juan","region":"PR","postalCode":"00936-3865"},{"worklocation":"PT01","extendedAddress":"CP:Portugal-Porto Salvo-CommHQ","streetAddress":"Lagoas Park, Edificio 15","poBox":"3. Andar","locality":"Porto Salvo","region":"","postalCode":"2740-262"},{"worklocation":"PT02","extendedAddress":"OBS:CP:Portugal-Alverca-Mfg Pl","streetAddress":"Estrada Nacional No.10","poBox":"","locality":"Alverca","region":"","postalCode":"2615-699"},{"worklocation":"PT03","extendedAddress":"OBS:CP:Portugal-Trofa-Mfg Plan","streetAddress":"","poBox":"","locality":"Trofa","region":"","postalCode":""},{"worklocation":"PY10","extendedAddress":"CP:Paraguay-Asuncion","streetAddress":"Av. Aviadores del Chaco 2917","poBox":"c/Molas Lopez","locality":"Asuncion","region":"","postalCode":""},{"worklocation":"RE01","extendedAddress":"CP:Reunion-SIB","streetAddress":"21 Rue Jules Verne","poBox":"B.P. 100","locality":"Le Port Cedex","region":"","postalCode":"97823"},{"worklocation":"RE02","extendedAddress":"CP:Reunion-Branch","streetAddress":"Centre d'affaires Savanna/Lot","poBox":"12 rue Jules Thirel BP 60100","locality":"Saint Paul cedex","region":"","postalCode":"97862"},{"worklocation":"RO01","extendedAddress":"CP:Romania-Bucharest-Comm Srl","streetAddress":"Gara Herastrau Street, no. 4C,","poBox":"BuildingB,2nd floor,GreenCourt","locality":"Bucharest, 2nd District","region":"","postalCode":"20334"},{"worklocation":"RO02","extendedAddress":"OBS:CP:Romania-Brasov Mfg Toll","streetAddress":"49 Iuliu Maniu Bd.","poBox":"","locality":"Brasov","region":"","postalCode":"500091"},{"worklocation":"RO03","extendedAddress":"OBS:CP:Romania-Brasov Comm Srl","streetAddress":"Grivitei  Street , No. A 96","poBox":"","locality":"Brasov","region":"","postalCode":"500173"},{"worklocation":"ROH1","extendedAddress":"Hill's:Romania-Bucharest","streetAddress":"Gara Herastrau Street, no. 4C","poBox":"Building B, 2nd floor, Green C","locality":"Bucharest, 2nd District","region":"","postalCode":"20334"},{"worklocation":"RS01","extendedAddress":"CP:Serbia-Belgrade","streetAddress":"Batajnicki Drum 283 F","poBox":"","locality":"Belgrade","region":"","postalCode":"11070"},{"worklocation":"RU01","extendedAddress":"CP:Russia-Moscow","streetAddress":"17/1 Krylatskaya Street","poBox":"","locality":"Moscow","region":"","postalCode":"121614"},{"worklocation":"RUG1","extendedAddress":"OBS:GABA:Russia-Moscow","streetAddress":"Leningradsky Prospect, 37/9, “","poBox":"","locality":"Moscow","region":"","postalCode":"125167"},{"worklocation":"RUH1","extendedAddress":"OBS:Hill's:Russia-Moscow","streetAddress":"Regus Business Centre LLC","poBox":"Smolenskaya Square, Bld. 3","locality":"Moscow","region":"","postalCode":"121099"},{"worklocation":"RUH2","extendedAddress":"Hill's:Russia-Moscow","streetAddress":"Regus Business Centre LLC","poBox":"Smolenskaya Square, Bld. 3","locality":"Moscow","region":"","postalCode":"121099"},{"worklocation":"RW01","extendedAddress":"CP:Rwanda","streetAddress":"Sulfo Road, Global Rwanda Sarl","poBox":"Sulfo Road, Global Rwanda Sarl","locality":"Kigali","region":"","postalCode":"4000183"},{"worklocation":"SA01","extendedAddress":"CP:Saudi Arabia","streetAddress":"P.O. Box 2771","poBox":"","locality":"Dammam","region":"","postalCode":"31461"},{"worklocation":"SA02","extendedAddress":"CP:Saudi Arabia-Olayan JV-Mfg","streetAddress":"P.O. Box 2771","poBox":"","locality":"Dammam","region":"","postalCode":"31461"},{"worklocation":"SA03","extendedAddress":"CP:Saudi Arabia-Olayan JV-Comm","streetAddress":"P.O. Box 2771","poBox":"","locality":"Dammam","region":"","postalCode":"31461"},{"worklocation":"SE01","extendedAddress":"CP:Sweden-Danderyd","streetAddress":"Svardvagen 23","poBox":"PO Box 560","locality":"Danderyd","region":"","postalCode":"SE-182 15"},{"worklocation":"SEH1","extendedAddress":"Hill's:Sweden-Danderyd","streetAddress":"Svardvagen 23","poBox":"PO Box 560","locality":"Danderyd","region":"","postalCode":"SE-182 15"},{"worklocation":"SG99","extendedAddress":"CP:Singapore-CP Eastern","streetAddress":"350 Orchard Road","poBox":"#18-08 Shaw House","locality":"Singapore","region":"","postalCode":"238868"},{"worklocation":"SGHA","extendedAddress":"OBS:Hill's:Singapore","streetAddress":"350 Orchard Road","poBox":"#18-08 Shaw House","locality":"Singapore","region":"","postalCode":"238868"},{"worklocation":"SI01","extendedAddress":"CP:Slovenia (Adria)","streetAddress":"Verovskova 55","poBox":"","locality":"Ljubljana","region":"","postalCode":"1000"},{"worklocation":"SK01","extendedAddress":"OBS:CP: Slovakia-Bratislava","streetAddress":"","poBox":"","locality":"","region":"","postalCode":""},{"worklocation":"SK02","extendedAddress":"CP:Slovakia-Bratislava (Euro)","streetAddress":"Grosslingova 4","poBox":"","locality":"Bratislava","region":"","postalCode":"811 09"},{"worklocation":"SKH1","extendedAddress":"Hill's:Slovakia-Bratislava","streetAddress":"Grosslingova 4","poBox":"","locality":"Bratislava","region":"","postalCode":"811 09"},{"worklocation":"SN01","extendedAddress":"CP:Senegal","streetAddress":"Km 2 Bd. Du Centenaire de la","poBox":"Commune de Dakar","locality":"Dakar","region":"","postalCode":""},{"worklocation":"SR01","extendedAddress":"OBS:CP: Serbia (Adria)","streetAddress":"Kraljice Katerine 84/7","poBox":"","locality":"Belgrade","region":"","postalCode":"11000"},{"worklocation":"SV20","extendedAddress":"CP:El Salvador-SV","streetAddress":"Blvd Pinza Calle L2 y L3 #11","poBox":"Ciudad Merliot","locality":"La Libertad","region":"","postalCode":""},{"worklocation":"T508","extendedAddress":"CP:Thailand-IHQ Services","streetAddress":"Klong Toey Sub-district,","poBox":"No. 19 Sunthornkosa Rd","locality":"Bangkok","region":"","postalCode":"10110"},{"worklocation":"T510","extendedAddress":"CP:Thailand-Klongtoey","streetAddress":"19 Na Ranong Road","poBox":"Sunthorn Kosa Rd","locality":"Bangkok","region":"","postalCode":"10110"},{"worklocation":"T511","extendedAddress":"CP:Thailand-Bangpakong","streetAddress":"Banga-Trad Km 57, Amphur Muang","poBox":"","locality":"Chonburi","region":"","postalCode":"20000"},{"worklocation":"T5H1","extendedAddress":"OBS:Hill's:Thailand-Klongtoey","streetAddress":"19 Na Ranong Road","poBox":"Sunthorn Kosa Rd","locality":"Bangkok","region":"","postalCode":"10110"},{"worklocation":"T5H2","extendedAddress":"Hill's:Thailand-Klongtoey","streetAddress":"19 Na Ranong Road","poBox":"Sunthorn Kosa Rd","locality":"Bangkok","region":"","postalCode":"10110"},{"worklocation":"T610","extendedAddress":"CP:Thailand-Klongtoey-6 day","streetAddress":"19 Na Ranong Road","poBox":"Sunthorn Kosa Rd","locality":"Bangkok","region":"","postalCode":"10110"},{"worklocation":"T611","extendedAddress":"CP:Thailand-Bangpakong-6 day","streetAddress":"Banga-Trad Km 57, Amphur Muang","poBox":"","locality":"Chonburi","region":"","postalCode":"20000"},{"worklocation":"TH50","extendedAddress":"OBS:CP:Thailand-Klongtoey","streetAddress":"19Off Na-Ranong Rd,Sunthornkos","poBox":"","locality":"Klongtoey, Bangkok","region":"","postalCode":"10110"},{"worklocation":"TH51","extendedAddress":"OBS:CP:Thailand-Bangpakong","streetAddress":"700/362 Amata Nakorn, Bangna-T","poBox":"","locality":"Amphur Muang, Chonburi","region":"","postalCode":"20000"},{"worklocation":"TH60","extendedAddress":"OBS:CP:Thailand-Klongtoey-6day","streetAddress":"19Off Na-Ranong Rd,Sunthornkos","poBox":"","locality":"Klongtoey, Bangkok","region":"","postalCode":"10110"},{"worklocation":"TH61","extendedAddress":"OBS:CP:Thailand-Bangpakong-6da","streetAddress":"700/362 Amata Nakorn, Bangna-T","poBox":"","locality":"Amphur Muang, Chonburi","region":"","postalCode":"20000"},{"worklocation":"TJ01","extendedAddress":"OBS:CP:Tadzhikistan","streetAddress":"No:21, Halturin Street,","poBox":"","locality":"Dushanbe","region":"","postalCode":""},{"worklocation":"TM01","extendedAddress":"OBS:CP:Turkmenistan","streetAddress":"3, Universitetsky str, Asia Tr","poBox":"","locality":"Ashgabat,","region":"","postalCode":""},{"worklocation":"TN01","extendedAddress":"CP:Tunisia","streetAddress":"Zone Industrielle Municipale","poBox":"BP142","locality":"Rades","region":"TN","postalCode":"2040"},{"worklocation":"TN02","extendedAddress":"CP:Tunisia-Genese","streetAddress":"Zone Industrielle Municipale","poBox":"BP142","locality":"Rades","region":"TN","postalCode":"2040"},{"worklocation":"TR01","extendedAddress":"CP:Turkey Commercial","streetAddress":"Sanayi Caddesi No.3 Kat.5","poBox":"Kucukyali, Maltepe","locality":"Istanbul","region":"","postalCode":"34854"},{"worklocation":"TR02","extendedAddress":"OBS:Turkey GEBZE Plant","streetAddress":"","poBox":"","locality":"","region":"","postalCode":""},{"worklocation":"TR03","extendedAddress":"OBS:CP Turkey Haci Sacir","streetAddress":"","poBox":"","locality":"","region":"","postalCode":""},{"worklocation":"TR04","extendedAddress":"CP:Turkey-New Geos Office","streetAddress":"Sanayi Caddesi No.3 Kat.5","poBox":"Kucukyali, Maltepe","locality":"Istanbul","region":"","postalCode":"34854"},{"worklocation":"TR05","extendedAddress":"CP:Turkey-Gebze Plant","streetAddress":"Ihsan Dede Cad. No. 141","poBox":"","locality":"Gebze - Kocaeli","region":"","postalCode":"41700"},{"worklocation":"TR06","extendedAddress":"CP:Turkey-Istanbul Sales Ofc","streetAddress":"Bostanci Dudullu Yolu Bey","poBox":"","locality":"Yukari Dudullu","region":"","postalCode":""},{"worklocation":"TR07","extendedAddress":"CP:Turkey-Ankara Sales Ofc","streetAddress":"4. Cad. 67. Sok.Tetik apt.","poBox":"","locality":"Emek Ankara 17/7","region":"","postalCode":""},{"worklocation":"TR08","extendedAddress":"CP:Turkey-Izmir Sales Ofc","streetAddress":"Kazim Dirik Mah.274.SOK Basar","poBox":"","locality":"Bornova Izmir","region":"","postalCode":""},{"worklocation":"TR40","extendedAddress":"OBS:CP:Turkey-Izmir Sales Ofc","streetAddress":"Kazim Dirik Mah.274.SOK Basar","poBox":"","locality":"Bornova Izmir","region":"","postalCode":""},{"worklocation":"TRH1","extendedAddress":"Hill's:Turkey-Istanbul","streetAddress":"Sanayi Caddesi No.3 Kat.5","poBox":"Kucukyali, Maltepe","locality":"Istanbul","region":"","postalCode":"34854"},{"worklocation":"TT20","extendedAddress":"CP:Trinidad","streetAddress":"Cor. Mocoya Rd \u0026 Churchill","poBox":"","locality":"Trincity","region":"TT","postalCode":""},{"worklocation":"TW01","extendedAddress":"CP:Taiwan-Hawley\u0026Hazel","streetAddress":"9/F No. 2, Section 1","poBox":"Dun Hua South Road","locality":"Taipei","region":"","postalCode":"10506"},{"worklocation":"TWH1","extendedAddress":"Hill's:Taiwan-Taipei","streetAddress":"9/F No. 2, Section 1","poBox":"Dun Hua South Road","locality":"Taipei","region":"","postalCode":"10506"},{"worklocation":"TZ01","extendedAddress":"CP:Tanzania","streetAddress":"Safasha Place Bld, Plot 74/7B,","poBox":"","locality":"Dar es Salaam","region":"","postalCode":""},{"worklocation":"UA01","extendedAddress":"CP:Ukraine-Kyiv","streetAddress":"Dymytrova 16-G Str","poBox":"Citibank Bldg 4th Fl","locality":"Kyiv","region":"","postalCode":"03150"},{"worklocation":"UAH1","extendedAddress":"Hill's:Ukraine","streetAddress":"Dymytrova 16-G Str","poBox":"Citibank Bldg 4th Fl","locality":"Kyiv","region":"","postalCode":"03150"},{"worklocation":"UG01","extendedAddress":"CP:Uganda","streetAddress":"Plot No M466,Charms (Uganda) L","poBox":"Charms (Uganda) Limited","locality":"Kampala","region":"","postalCode":"4000185"},{"worklocation":"US10","extendedAddress":"CP:US-Burlington-USCO","streetAddress":"400 Elbow Lane","poBox":"","locality":"Burlington","region":"NJ","postalCode":"08016"},{"worklocation":"US11","extendedAddress":"OBS:CP:US-Burlington-Glob Tech","streetAddress":"400 Elbow Lane","poBox":"","locality":"Burlington","region":"NJ","postalCode":"08016"},{"worklocation":"US12","extendedAddress":"OBS:CP:US-Burlington-CS\u0026L","streetAddress":"400 Elbow Lane","poBox":"","locality":"Burlington","region":"NJ","postalCode":"08016"},{"worklocation":"US23","extendedAddress":"OBS:Softsp(Chsk):CPUS","streetAddress":"132 Columbia Court South","poBox":"","locality":"Chaska","region":"MN","postalCode":"55318"},{"worklocation":"US25","extendedAddress":"OBS:Topeka:Hills","streetAddress":"","poBox":"","locality":"Topeka","region":"KS","postalCode":"66601-0148"},{"worklocation":"US30","extendedAddress":"CP:US-Atlanta-CS\u0026L","streetAddress":"3100 Cumberland Blvd Suite 700","poBox":"","locality":"Atlanta","region":"GA","postalCode":"30339"},{"worklocation":"US31","extendedAddress":"OBS:CP:US-Mtown-CDO-USCO","streetAddress":"191 East Hanover Avenue","poBox":"","locality":"Morristown","region":"NJ","postalCode":"07962-1928"},{"worklocation":"US32","extendedAddress":"CP:US-Smyrna-CDO-USCO","streetAddress":"3100 Cumberland Blvd.","poBox":"Suite 700","locality":"Atlanta","region":"GA","postalCode":"30339"},{"worklocation":"US33","extendedAddress":"CP:US-Rhode Island-CDO-USCO","streetAddress":"42 Albion Road","poBox":"Suite 201","locality":"Lincoln","region":"RI","postalCode":"02865"},{"worklocation":"US34","extendedAddress":"CP:US-Nashville-CDO-USCO","streetAddress":"1000 Northcase Blvd, Suite 100","poBox":"","locality":"Goodlettsville","region":"TN","postalCode":"37072"},{"worklocation":"US35","extendedAddress":"CP:US-Charlotte-CDO-USCO","streetAddress":"9300 Harris Corners Parkway","poBox":"Suite 330","locality":"Charlotte","region":"NC","postalCode":"28269"},{"worklocation":"US36","extendedAddress":"CP:US-Boise-CDO-USCO","streetAddress":"950 West Bannock Street","poBox":"Suite 470","locality":"Boise","region":"ID","postalCode":"83702"},{"worklocation":"US37","extendedAddress":"CP:US-Field West-CDO-USCO","streetAddress":"","poBox":"","locality":"","region":"","postalCode":""},{"worklocation":"US38","extendedAddress":"CP:US-Field Central-CDO-USCO","streetAddress":"","poBox":"","locality":"","region":"","postalCode":""},{"worklocation":"US39","extendedAddress":"CP:US-Field East-CDO-USCO","streetAddress":"","poBox":"","locality":"","region":"","postalCode":""},{"worklocation":"US40","extendedAddress":"OBS:IPD(Mtown):CPUS","streetAddress":"Hanover Avenue","poBox":"","locality":"Morristown","region":"NJ","postalCode":"07912"},{"worklocation":"US41","extendedAddress":"OBS:IPD(Texark):CPUS","streetAddress":"303 Falvey Blvd.","poBox":"","locality":"Texarkana","region":"TX","postalCode":"75501"},{"worklocation":"US42","extendedAddress":"OBS:NC Reg Sls:CPUS","streetAddress":"2850 W. Golf Road, Suite 720","poBox":"","locality":"Rolling Meadows.","region":"IL","postalCode":"60009"},{"worklocation":"US43","extendedAddress":"OBS:NE Reg Sls:CPUS","streetAddress":"One Centennial","poBox":"","locality":"Piscataway","region":"NJ","postalCode":"08855"},{"worklocation":"US44","extendedAddress":"OBS:Pac Reg Sls:CPUS","streetAddress":"8001 Irvine Center Drive","poBox":"","locality":"Irvine","region":"CA","postalCode":"92718"},{"worklocation":"US45","extendedAddress":"OBS:So Reg Sls:CPUS","streetAddress":"2233 Lake Park Dr., Suite 360","poBox":"","locality":"Smyrna","region":"GA","postalCode":"30080"},{"worklocation":"US46","extendedAddress":"CP:US-Rogers-CDO-USCO","streetAddress":"5211 Village Parkway Suite 201","poBox":"","locality":"Rogers","region":"AR","postalCode":"72758"},{"worklocation":"US47","extendedAddress":"OBS:KMart:CPUS","streetAddress":"200 E. Big Beaver Road","poBox":"","locality":"Troy","region":"MI","postalCode":"48083"},{"worklocation":"US48","extendedAddress":"CP:US-Minneapolis-CDO-USCO","streetAddress":"801 Nicollet Mall, Suite 800","poBox":"","locality":"Minneapolis","region":"MN","postalCode":"55402"},{"worklocation":"US49","extendedAddress":"CP:US-Field-CDO-USCO","streetAddress":"","poBox":"","locality":"","region":"","postalCode":""},{"worklocation":"US50","extendedAddress":"CP:US-Cincinnati-CDO-USCO","streetAddress":"4680 Parkway Drive, Suite 410","poBox":"","locality":"Mason","region":"OH","postalCode":"45040"},{"worklocation":"US51","extendedAddress":"CP:US-Schaumburg-CDO-USCO","streetAddress":"1700 East Golf Road","poBox":"Suite 500","locality":"Schaumburg","region":"IL","postalCode":"60173"},{"worklocation":"US52","extendedAddress":"CP:US-Tennessee-USCO","streetAddress":"200 Centennial Court","poBox":"","locality":"Morristown","region":"TN","postalCode":"37814"},{"worklocation":"US53","extendedAddress":"CP:US-Tennessee-Global Tech","streetAddress":"200 Centennial Court","poBox":"","locality":"Morristown","region":"TN","postalCode":"37814"},{"worklocation":"US54","extendedAddress":"CP:US-Topeka-Corp (Hill's)","streetAddress":"400 SW 8th Avenue","poBox":"","locality":"Topeka","region":"KS","postalCode":"66603"},{"worklocation":"US55","extendedAddress":"OBS:CP:US-Topeka-GblTechHill's","streetAddress":"400 SW 8th Avenue","poBox":"","locality":"Topeka","region":"KS","postalCode":"66603"},{"worklocation":"US56","extendedAddress":"CP:US-Rogers-Corporate","streetAddress":"5211 Village Parkway Suite 201","poBox":"","locality":"Rogers","region":"AR","postalCode":"72758"},{"worklocation":"US57","extendedAddress":"CP:US-Scottsdale-PCA","streetAddress":"6210 E. Thomas Rd, Suite 200","poBox":"","locality":"Scottsdale","region":"AZ","postalCode":"85251"},{"worklocation":"US59","extendedAddress":"CP:US-Nashville-Corporate","streetAddress":"1000 Northcase Blvd, Suite 100","poBox":"","locality":"Goodlettsville","region":"TN","postalCode":"37072"},{"worklocation":"US61","extendedAddress":"OBS:CP:US-Topeka-Corporate","streetAddress":"P.O. Box 148","poBox":"","locality":"Topeka","region":"KS","postalCode":"66601-0148"},{"worklocation":"US62","extendedAddress":"OBS:Canton: Global Growth","streetAddress":"","poBox":"","locality":"","region":"","postalCode":""},{"worklocation":"US63","extendedAddress":"OBS:CP:US-Dallas-Global Tech","streetAddress":"14335 Gillis Road","poBox":"","locality":"Dallas","region":"TX","postalCode":"75034"},{"worklocation":"US64","extendedAddress":"OBS:CP:US-Bentonville-Gbl Tech","streetAddress":"5211 Village Parkway Suite 201","poBox":"","locality":"Rogers","region":"AR","postalCode":"72758"},{"worklocation":"US65","extendedAddress":"OBS:CP:US-Topeka-Global Tech","streetAddress":"P.O. Box 148","poBox":"","locality":"Topeka","region":"KS","postalCode":"66601-0148"},{"worklocation":"US66","extendedAddress":"OBS:CP:US-Mtown-Corporate","streetAddress":"191 East Hanover Avenue","poBox":"","locality":"Morristown","region":"NJ","postalCode":"07962-1928"},{"worklocation":"US67","extendedAddress":"OBS:CP:US-Mtown-Global Tech","streetAddress":"191 East Hanover Avenue","poBox":"","locality":"Morristown","region":"NJ","postalCode":"07962-1928"},{"worklocation":"US68","extendedAddress":"CP:US-Mtown-USCO","streetAddress":"191 East Hanover Avenue","poBox":"","locality":"Morristown","region":"NJ","postalCode":"07962-1928"},{"worklocation":"US69","extendedAddress":"OBS:CP:US-Mtown-Quality-USCO","streetAddress":"191 East Hanover Avenue","poBox":"","locality":"Morristown","region":"NJ","postalCode":"07962-1928"},{"worklocation":"US70","extendedAddress":"OBS:CP:US-Dallas-COP","streetAddress":"14335 Gillis Road","poBox":"","locality":"Dallas","region":"TX","postalCode":"75034"},{"worklocation":"US71","extendedAddress":"CP:US-Dallas-COP-Other","streetAddress":"14335 Gillis Road","poBox":"","locality":"Dallas","region":"TX","postalCode":"75034"},{"worklocation":"US72","extendedAddress":"CP:US-Greenwood-USCO","streetAddress":"5421 US 25 N","poBox":"","locality":"Hodges","region":"SC","postalCode":"29653"},{"worklocation":"US78","extendedAddress":"CP:US-Cambridge-USCO","streetAddress":"8800 Guernsey Road","poBox":"","locality":"Cambridge","region":"OH","postalCode":"43725"},{"worklocation":"US79","extendedAddress":"CP:US-Cambridge-Global Tech","streetAddress":"8800 Guernsey Road","poBox":"","locality":"Cambridge","region":"OH","postalCode":"43725"},{"worklocation":"US80","extendedAddress":"CP:US-Piscataway-Corporate","streetAddress":"909 River Road","poBox":"","locality":"Piscataway","region":"NJ","postalCode":"08855"},{"worklocation":"US81","extendedAddress":"CP:US-Piscataway-USCO","streetAddress":"909 River Road","poBox":"","locality":"Piscataway","region":"NJ","postalCode":"08855"},{"worklocation":"US82","extendedAddress":"CP:US-Piscataway-Global Tech","streetAddress":"909 River Road","poBox":"","locality":"Piscataway","region":"NJ","postalCode":"08855"},{"worklocation":"US83","extendedAddress":"CP:US-New York-Asia Div","streetAddress":"300 Park Avenue","poBox":"","locality":"New York","region":"NY","postalCode":"10022"},{"worklocation":"US84","extendedAddress":"CP:US-New York-Latin Amer Div","streetAddress":"300 Park Avenue","poBox":"","locality":"New York","region":"NY","postalCode":"10022"},{"worklocation":"US85","extendedAddress":"CP:US-New York-AMED Div","streetAddress":"300 Park Avenue","poBox":"","locality":"New York","region":"NY","postalCode":"10022"},{"worklocation":"US86","extendedAddress":"CP:US-Piscataway-GIT/CBS","streetAddress":"909 River Road","poBox":"","locality":"Piscataway","region":"NJ","postalCode":"08855"},{"worklocation":"US87","extendedAddress":"CP:US-Piscataway-Supply Chain","streetAddress":"909 River Road","poBox":"","locality":"Piscataway","region":"NJ","postalCode":"08855"},{"worklocation":"US90","extendedAddress":"CP:US-Atlanta-Global Tech","streetAddress":"3100 Cumberland Blvd Suite 700","poBox":"","locality":"Atlanta","region":"GA","postalCode":"30339"},{"worklocation":"US91","extendedAddress":"OBS:Jeff:Global Growth","streetAddress":"1410 S. Clark Blvd","poBox":"","locality":"Jeffersonville","region":"IN","postalCode":"47129"},{"worklocation":"US92","extendedAddress":"OBS:Jeff:CPUS","streetAddress":"1410 S. Clark Blvd.","poBox":"","locality":"Jeffersonville","region":"IN","postalCode":"47129"},{"worklocation":"US93","extendedAddress":"OBS:Kansas City:Global Growth","streetAddress":"1806 Kansas Avenue","poBox":"","locality":"Kansas City","region":"KS","postalCode":"66105-1124"},{"worklocation":"US94","extendedAddress":"OBS:Kansas City:CPUS","streetAddress":"1806 Kansas Avenue","poBox":"","locality":"Kansas City","region":"KS","postalCode":"66105"},{"worklocation":"US95","extendedAddress":"OBS:Murph(Solon):CPUS","streetAddress":"6550 Davis Industrial Pkwy.","poBox":"","locality":"Solon","region":"OH","postalCode":"44139"},{"worklocation":"US96","extendedAddress":"CP:US-New York-USCO","streetAddress":"300 Park Avenue","poBox":"","locality":"New York","region":"NY","postalCode":"10022"},{"worklocation":"US97","extendedAddress":"CP:US-New York-Global Tech","streetAddress":"300 Park Avenue","poBox":"","locality":"New York","region":"NY","postalCode":"10022"},{"worklocation":"US98","extendedAddress":"CP:US-New York-Corporate","streetAddress":"300 Park Avenue","poBox":"","locality":"New York","region":"NY","postalCode":"10022"},{"worklocation":"US99","extendedAddress":"OBS:CP:US-New York-Intl Div","streetAddress":"300 Park Avenue","poBox":"","locality":"New York","region":"NY","postalCode":"10022"},{"worklocation":"USBK","extendedAddress":"OBS:CP US Berkley","streetAddress":"","poBox":"","locality":"","region":"","postalCode":""},{"worklocation":"USD1","extendedAddress":"Hill's:US-Greensboro","streetAddress":"311-G Chimney Rock Road","poBox":"c/o APL Logistics","locality":"Greensboro","region":"NC","postalCode":"27409"},{"worklocation":"USD2","extendedAddress":"Hill's:US-Columbia","streetAddress":"760 Rosewood Drive","poBox":"","locality":"Columbia","region":"SC","postalCode":"29201-4634"},{"worklocation":"USD3","extendedAddress":"Hill's:US-Richmond IN-Plant","streetAddress":"2325 Union Pike","poBox":"","locality":"Richmond","region":"IN","postalCode":"47374"},{"worklocation":"USDS","extendedAddress":"CP:Hill's:US-Topeka-Corp","streetAddress":"400 SW 8th Avenue","poBox":"","locality":"Topeka","region":"KS","postalCode":"66603"},{"worklocation":"USH0","extendedAddress":"Hill's:US-Denver","streetAddress":"P.O. Box 17729","poBox":"","locality":"Denver","region":"CO","postalCode":"80217"},{"worklocation":"USH1","extendedAddress":"Hill's:US-Las Vegas","streetAddress":"4900 Engineer Way,Ste106","poBox":"c/o NYK","locality":"N. Las Vegas","region":"NV","postalCode":"89030"},{"worklocation":"USH2","extendedAddress":"Hill's:US-Chester","streetAddress":"68 Tetz Road, Suite C","poBox":"c/o APL","locality":"Chester","region":"NY","postalCode":"10918"},{"worklocation":"USH3","extendedAddress":"Hill's:US-Dallas","streetAddress":"4003 Giffort Street, Suite 300","poBox":"","locality":"Grand Prairie","region":"TX","postalCode":"75050"},{"worklocation":"USH4","extendedAddress":"Hill's:US-Houston","streetAddress":"755 Bradfield Rd.","poBox":"","locality":"Houston","region":"TX","postalCode":"77060"},{"worklocation":"USH5","extendedAddress":"Hill's:US-New Orleans","streetAddress":"41347 S Range Road","poBox":"c/o SPS","locality":"Ponchatoula","region":"LA","postalCode":"70454"},{"worklocation":"USH6","extendedAddress":"Hill's:US-San Antonio","streetAddress":"121 Interpark Blvd Ste 1101","poBox":"","locality":"San Antonio","region":"TX","postalCode":"78216"},{"worklocation":"USH7","extendedAddress":"OBS:Hill's:US-Chicago","streetAddress":"749 N. Baker Dr.","poBox":"c/o Jenson-Souders Assoc.","locality":"Itasca","region":"IL","postalCode":"60143"},{"worklocation":"USH8","extendedAddress":"OBS:Hill's:US-Lansing","streetAddress":"2130 Apollo Dr.","poBox":"","locality":"Lansing","region":"MI","postalCode":"48906"},{"worklocation":"USH9","extendedAddress":"Hill's:US-Boise","streetAddress":"1450 N Hickory Ave","poBox":"Diamond Line Delivery","locality":"Meridian","region":"ID","postalCode":"83642"},{"worklocation":"USHA","extendedAddress":"Hill's:US-Topeka-Corp","streetAddress":"400 SW 8th Avenue","poBox":"","locality":"Topeka","region":"KS","postalCode":"66603"},{"worklocation":"USHB","extendedAddress":"Hill's:US-Topeka-Corp-Sales","streetAddress":"400 SW 8th Avenue","poBox":"","locality":"Topeka","region":"KS","postalCode":"66603"},{"worklocation":"USHC","extendedAddress":"Hill's:US-Topeka-PNC","streetAddress":"P.O. Box 1658","poBox":"","locality":"Topeka","region":"KS","postalCode":"66601-1658"},{"worklocation":"USHD","extendedAddress":"Hill's:US-Topeka-Plant","streetAddress":"320 E. Crane Street","poBox":"","locality":"Topeka","region":"KS","postalCode":"66603"},{"worklocation":"USHE","extendedAddress":"Hill's:US-Bowling Green","streetAddress":"151 Turner Court","poBox":"","locality":"Bowling Green","region":"KY","postalCode":"42101"},{"worklocation":"USHF","extendedAddress":"OBS:Hill's:US-Los Angeles","streetAddress":"6041 South Malt Avenue","poBox":"","locality":"Los Angeles","region":"CA","postalCode":"90040"},{"worklocation":"USHG","extendedAddress":"OBS:Hill's Richmond","streetAddress":"","poBox":"","locality":"","region":"","postalCode":""},{"worklocation":"USHH","extendedAddress":"Hill's:US-Field Sales-Pet","streetAddress":"","poBox":"","locality":"","region":"","postalCode":""},{"worklocation":"USHI","extendedAddress":"Hill's:US-Field Sales-Vet","streetAddress":"","poBox":"","locality":"","region":"","postalCode":""},{"worklocation":"USHJ","extendedAddress":"Hill's:US-Field Cust Supply","streetAddress":"","poBox":"","locality":"","region":"","postalCode":""},{"worklocation":"USHK","extendedAddress":"Hill's:US-Topeka-Global Tech","streetAddress":"400 SW 8th Avenue","poBox":"","locality":"Topeka","region":"KS","postalCode":"66603"},{"worklocation":"USHL","extendedAddress":"OBS:Hill's:US-Topeka-PNC (IN)","streetAddress":"P.O. Box 1658","poBox":"","locality":"Topeka","region":"KS","postalCode":"66601-1658"},{"worklocation":"USHM","extendedAddress":"OBS:Hill's:US-Topeka-Corp (IN)","streetAddress":"400 SW 8th Avenue","poBox":"","locality":"Topeka","region":"KS","postalCode":"66603"},{"worklocation":"USHN","extendedAddress":"Hill's:US-Richmond IN-Plant","streetAddress":"2325 Union Pike","poBox":"","locality":"Richmond","region":"IN","postalCode":"47374"},{"worklocation":"USHO","extendedAddress":"Hill's:US-Topeka-Corp-CS\u0026L","streetAddress":"400 SW 8th Avenue","poBox":"","locality":"Topeka","region":"KS","postalCode":"66603"},{"worklocation":"USHP","extendedAddress":"OBS:Hill's:US-BowlingGreen(IN)","streetAddress":"151 Turner Court","poBox":"","locality":"Bowling Green","region":"KY","postalCode":"42101"},{"worklocation":"USHQ","extendedAddress":"Hill's:US-Emporia","streetAddress":"400 S. Weaver","poBox":"","locality":"Emporia","region":"KS","postalCode":"66801"},{"worklocation":"USHR","extendedAddress":"Hill's:US-Atlanta","streetAddress":"1955 Evergreen Blvd, Ste 250","poBox":"","locality":"Duluth","region":"GA","postalCode":"30096"},{"worklocation":"USHS","extendedAddress":"Hill's:US-Ft Lauderdale","streetAddress":"15751 SW 41st St,Ste 200","poBox":"","locality":"Davie","region":"FL","postalCode":"33331"},{"worklocation":"USHT","extendedAddress":"Hill's:US-Nashville","streetAddress":"285 Tech Park Dr, Ste1700","poBox":"c/o APL","locality":"LaVergne","region":"TN","postalCode":"37086"},{"worklocation":"USHU","extendedAddress":"Hill's:US-Tampa","streetAddress":"2000 N. 62nd St.","poBox":"c/o National Dist Ctrs","locality":"Tampa","region":"FL","postalCode":"33619"},{"worklocation":"USHV","extendedAddress":"Hill's:US-Jacksonville","streetAddress":"3028 Mercury Rd, Unit 2","poBox":"","locality":"Jacksonville","region":"FL","postalCode":"32207-7915"},{"worklocation":"USHW","extendedAddress":"Hill's:US-Rochester","streetAddress":"395 Summit Point Dr Ste 6A","poBox":"","locality":"Henrietta","region":"NY","postalCode":"14467"},{"worklocation":"USHX","extendedAddress":"Hill's:US-Mansfield","streetAddress":"390 Oakland Street","poBox":"c/o Tighe Warehouse","locality":"Mansfield","region":"MA","postalCode":"02048-1516"},{"worklocation":"USHY","extendedAddress":"Hill's:US-Baltimore","streetAddress":"6635 Business Parkway","poBox":"c/o APL Logistics","locality":"Elkridge","region":"MD","postalCode":"21075"},{"worklocation":"USHZ","extendedAddress":"Hill's:US-Memphis","streetAddress":"1682 Shelby Oaks Dr. N. Ste 9","poBox":"","locality":"Memphis","region":"TN","postalCode":"38134"},{"worklocation":"USIN","extendedAddress":"CP:US-Intl-Expt \u0026 Lcl N","streetAddress":"300 Park Avenue","poBox":"","locality":"New York","region":"NY","postalCode":"10022"},{"worklocation":"USJC","extendedAddress":"OBS:CP US Jersey City","streetAddress":"","poBox":"","locality":"","region":"","postalCode":""},{"worklocation":"USL0","extendedAddress":"Hill's:US-BSBF Locations","streetAddress":"","poBox":"","locality":"","region":"","postalCode":""},{"worklocation":"USL1","extendedAddress":"OBS:CP:Hill's:US-Phoenix-PETsM","streetAddress":"22601 N. 19th Ave., Suite 206","poBox":"","locality":"Phoenix","region":"AZ","postalCode":"85027"},{"worklocation":"USL2","extendedAddress":"OBS:CP:Hill's:US-Topeka-PNC","streetAddress":"P.O. Box 1658","poBox":"","locality":"Topeka","region":"KS","postalCode":"66601-1658"},{"worklocation":"USL3","extendedAddress":"OBS:CP:Hill's:US-Richmond IN","streetAddress":"P.O. Box 2146","poBox":"","locality":"Richmond","region":"IN","postalCode":"47375"},{"worklocation":"USL4","extendedAddress":"OBS:Hill's:US-Emporia (IN)","streetAddress":"400 S. Weaver","poBox":"","locality":"Emporia","region":"KS","postalCode":"66801"},{"worklocation":"USL5","extendedAddress":"OBS:CP:Hill's:US-Emporia","streetAddress":"P. O. Box 847","poBox":"","locality":"Emporia","region":"KS","postalCode":"66801-0847"},{"worklocation":"USL6","extendedAddress":"Hill's:US-Mobile","streetAddress":"5228 Halls Mill Rd Stes I \u0026 G","poBox":"","locality":"Mobile","region":"AL","postalCode":"36619"},{"worklocation":"USL7","extendedAddress":"OBS:CP:Hill's:US-Topeka Plant","streetAddress":"320 E. Crane Street","poBox":"","locality":"Topeka","region":"KS","postalCode":"66603"},{"worklocation":"USL8","extendedAddress":"OBS:Hill's:US-Emporia-CS\u0026L","streetAddress":"P. O. Box 847","poBox":"","locality":"Emporia","region":"KS","postalCode":"66801-0847"},{"worklocation":"USL9","extendedAddress":"Hill's:US-Corporate Vet Affair","streetAddress":"400 SW 8th Avenue","poBox":"","locality":"Topeka","region":"KS","postalCode":"66603"},{"worklocation":"USLA","extendedAddress":"Hill's:US-Fresno","streetAddress":"3545 E. Date Ave.","poBox":"c/o Royal Express","locality":"Fresno","region":"CA","postalCode":"93725"},{"worklocation":"USLB","extendedAddress":"Hill's:US-Albuquerque","streetAddress":"2801 Broadbent Pkwy NE Ste A","poBox":"","locality":"Albuquerque","region":"NM","postalCode":"87107"},{"worklocation":"USLC","extendedAddress":"Hill's:US-Phoenix","streetAddress":"435 S 59th Ave","poBox":"c/o UpDike Warehousing","locality":"Phoenix","region":"AZ","postalCode":"85043"},{"worklocation":"USLD","extendedAddress":"Hill's:US-Portland","streetAddress":"16530 SW 72nd Ave","poBox":"c/o Bridgeport Dist","locality":"Portland","region":"OR","postalCode":"97224"},{"worklocation":"USLE","extendedAddress":"Hill's:US-Vacaville","streetAddress":"1070 Piper Drive","poBox":"c/o Updike Dist Logistics","locality":"Vacaville","region":"CA","postalCode":"95688"},{"worklocation":"USLF","extendedAddress":"Hill's:US-Salt Lake City","streetAddress":"1711 S. 4650 W.","poBox":"Aspen Distribution","locality":"Salt Lake City","region":"UT","postalCode":"84104"},{"worklocation":"USLG","extendedAddress":"OBS:Hill's:US-Hayward","streetAddress":"c/o GSC Logistics","poBox":"24 Cannery Court","locality":"Hayward","region":"CA","postalCode":"94544"},{"worklocation":"USLH","extendedAddress":"Hill's:US-Seattle","streetAddress":"22434 76th Ave","poBox":"c/o Holman Dist. Services","locality":"South Kent","region":"WA","postalCode":"98032"},{"worklocation":"USLI","extendedAddress":"Hill's:US-Ontario","streetAddress":"5725 East Jurupa Street","poBox":"c/o Holman Dist. Services","locality":"Ontario","region":"CA","postalCode":"91761"},{"worklocation":"USLJ","extendedAddress":"Hill's:US-Butte","streetAddress":"2755 Lexington Ave","poBox":"Mergenthaler Transfer \u0026 Storag","locality":"Butte","region":"MT","postalCode":"59701"},{"worklocation":"USLK","extendedAddress":"Hill's:US-Anchorage","streetAddress":"1300 W 56th Ave, Ste 14","poBox":"c/o American Fast Freight","locality":"Anchorage","region":"AK","postalCode":"99518"},{"worklocation":"USLL","extendedAddress":"Hill's:US-Richmond IN-Wse1","streetAddress":"2859 N. Salisbury Road","poBox":"","locality":"Richmond","region":"IN","postalCode":"47374"},{"worklocation":"USLM","extendedAddress":"Hill's:US-Richmond VA","streetAddress":"8420 Meadowbridge Rd Ste B","poBox":"","locality":"Mechanicsville","region":"VA","postalCode":"23116"},{"worklocation":"USLN","extendedAddress":"Hill's:US-Westfield","streetAddress":"61 Union St.","poBox":"","locality":"Westfield","region":"MA","postalCode":"01085"},{"worklocation":"USLO","extendedAddress":"Hill's:US-Field-Vet Affairs","streetAddress":"","poBox":"","locality":"","region":"","postalCode":""},{"worklocation":"USLP","extendedAddress":"Hill's:US-San Diego-Petco","streetAddress":"12730 High Bluff Dr Suite 350","poBox":"","locality":"San Diego","region":"CA","postalCode":"92130"},{"worklocation":"USLQ","extendedAddress":"Hill's:US-Grants Pass","streetAddress":"1899 SE Stephens","poBox":"c/o USF Reddaway","locality":"Roseburg","region":"OR","postalCode":"97470"},{"worklocation":"USLR","extendedAddress":"Hill's:US-Orlando","streetAddress":"8350 Parkline Blvd #6","poBox":"","locality":"Orlando","region":"FL","postalCode":"32809"},{"worklocation":"USLS","extendedAddress":"Hill's:US-Spokane","streetAddress":"1220 North Havana","poBox":"c/o Oak Harbor Freight Lines","locality":"Spokane","region":"WA","postalCode":"99202"},{"worklocation":"USLT","extendedAddress":"Hill's:US-Yakima","streetAddress":"1505 East Mead Ave.","poBox":"c/o Oak Harbor Freight Lines","locality":"Yakima","region":"WA","postalCode":"98901"},{"worklocation":"USLU","extendedAddress":"Hill's:US-Phoenix-PETsMART","streetAddress":"22601 N. 19th Ave., Suite 110","poBox":"","locality":"Phoenix","region":"AZ","postalCode":"85027"},{"worklocation":"USLV","extendedAddress":"OBS:Hill's:US-Richmond IN-Wse2","streetAddress":"1200 Industries Road","poBox":"","locality":"Richmond","region":"IN","postalCode":"47374"},{"worklocation":"USLW","extendedAddress":"OBS:CP:Hill's:US-Bowling Green","streetAddress":"P.O. Box 30309","poBox":"","locality":"Bowling Green","region":"KY","postalCode":"42102-5309"},{"worklocation":"USLX","extendedAddress":"OBS:CP:Hill's:US-Los Angeles","streetAddress":"6041 South Malt Avenue","poBox":"","locality":"Los Angeles","region":"CA","postalCode":"90040"},{"worklocation":"USLY","extendedAddress":"OBS:CP:Hill's:US-Field Sales","streetAddress":"","poBox":"","locality":"","region":"","postalCode":""},{"worklocation":"USLZ","extendedAddress":"OBS:CP:Hill's:US-San Diego-Pet","streetAddress":"12707 High Bluff Drive","poBox":"Suite #200","locality":"San Diego","region":"CA","postalCode":"92130"},{"worklocation":"USP1","extendedAddress":"OBS:COP (Canton):CPUS","streetAddress":"One Colgate Way","poBox":"","locality":"Canton","region":"MA","postalCode":"02021"},{"worklocation":"USP2","extendedAddress":"CP:US-New York-COP","streetAddress":"300 Park Avenue","poBox":"","locality":"New York","region":"NY","postalCode":"10022"},{"worklocation":"USP3","extendedAddress":"CP:US-Field-COP","streetAddress":"","poBox":"","locality":"","region":"","postalCode":""},{"worklocation":"USRT","extendedAddress":"CP:US-Retirees","streetAddress":"","poBox":"","locality":"","region":"","postalCode":""},{"worklocation":"USSF","extendedAddress":"OBS:CP:US-Pleasanton-CDO-USCO","streetAddress":"6160 Stoneridge Mall Road","poBox":"Suite 120","locality":"Pleasanton","region":"CA","postalCode":"94588"},{"worklocation":"UST1","extendedAddress":"Tom's:US-Sanford","streetAddress":"27 Community Drive","poBox":"","locality":"Sanford","region":"ME","postalCode":"04073"},{"worklocation":"UST2","extendedAddress":"CP:Tom's:US-Sanford","streetAddress":"27 Community Drive","poBox":"","locality":"Sanford","region":"ME","postalCode":"04073"},{"worklocation":"UST3","extendedAddress":"Tom's:US-Kennebunk","streetAddress":"302 Lafayette Center","poBox":"","locality":"Kennebunk","region":"ME","postalCode":"04043"},{"worklocation":"UST4","extendedAddress":"CP:Tom's:US-Kennebunk","streetAddress":"302 Lafayette Center","poBox":"","locality":"Kennebunk","region":"ME","postalCode":"04043"},{"worklocation":"UST5","extendedAddress":"Tom's:US-Field Sales","streetAddress":"","poBox":"","locality":"","region":"ME","postalCode":""},{"worklocation":"UST6","extendedAddress":"CP:Tom's:US-Field Sales","streetAddress":"","poBox":"","locality":"","region":"ME","postalCode":""},{"worklocation":"UST7","extendedAddress":"Hill's:Tom's:US-Kennebunk","streetAddress":"302 Lafayette Center","poBox":"","locality":"Kennebunk","region":"ME","postalCode":"04043"},{"worklocation":"UY10","extendedAddress":"CP:Uruguay-Galeano","streetAddress":"Teniente Galeano 3160","poBox":"","locality":"Montevideo","region":"","postalCode":"12200"},{"worklocation":"UZ01","extendedAddress":"OBS:CP:Uzbekistan","streetAddress":"Afrosiab Street No. 12B","poBox":"","locality":"Tashkent","region":"","postalCode":"700015"},{"worklocation":"UZ02","extendedAddress":"CP:Uzbekistan","streetAddress":"Afrosiab Street No. 12B","poBox":"","locality":"Tashkent","region":"","postalCode":"700015"},{"worklocation":"VE01","extendedAddress":"OBS:CP Venezuela Caracas","streetAddress":"Cl Hans Neumann Ed Corimon","poBox":"","locality":"Caracas","region":"","postalCode":"1071"},{"worklocation":"VE02","extendedAddress":"OBS:CP Venezuela Puerto La Cru","streetAddress":"CC. Pto Libre Piso 1 Lecherias","poBox":"","locality":"Puerto la Cruz","region":"","postalCode":""},{"worklocation":"VE03","extendedAddress":"OBS:CP Venezuela Barquisimento","streetAddress":"Av Pcpl de las Mercedes Loc 7","poBox":"","locality":"Cabudare","region":"","postalCode":""},{"worklocation":"VE04","extendedAddress":"OBS:CP Venezuela Maracaibo","streetAddress":"Cl 77 entre  Av 15 y 14A","poBox":"","locality":"Maracaibo","region":"","postalCode":""},{"worklocation":"VE05","extendedAddress":"OBS:CP Venezuela San Cristobal","streetAddress":"","poBox":"","locality":"","region":"","postalCode":""},{"worklocation":"VE06","extendedAddress":"OBS:CP Venezuela Puerto Ordaz","streetAddress":"","poBox":"","locality":"","region":"","postalCode":""},{"worklocation":"VE10","extendedAddress":"OBS:CP Venezuela Valencia","streetAddress":"Urb Michelena, Av Uslar","poBox":"","locality":"Valencia 2001","region":"","postalCode":"172"},{"worklocation":"VE11","extendedAddress":"OBS:CP:Venezuela-Caracas(VE02)","streetAddress":"Zona Ind Mocumbo, Via Araguita","poBox":"","locality":"Guacara","region":"","postalCode":""},{"worklocation":"VE20","extendedAddress":"OBS:CP Venezuela El Recreo","streetAddress":"Urb Ind. El Recreo Parcela 91","poBox":"","locality":"Valencia","region":"","postalCode":""},{"worklocation":"VE21","extendedAddress":"CP:Venezuela-Caracas","streetAddress":"Cl Hans Neumann Ed Corimon","poBox":"","locality":"Caracas","region":"","postalCode":"1071"},{"worklocation":"VE22","extendedAddress":"OBS:CP Venezuela Puerto La Cru","streetAddress":"CC. Pto Libre Piso 1 Lecherias","poBox":"","locality":"Puerto la Cruz","region":"","postalCode":""},{"worklocation":"VE23","extendedAddress":"OBS:CP Venezuela Barquisimento","streetAddress":"Av Pcpl de las Mercedes Loc 7","poBox":"","locality":"Cabudare","region":"","postalCode":""},{"worklocation":"VE24","extendedAddress":"OBS:CP Venezuela Maracaibo","streetAddress":"Cl 77 entre  Av 15 y 14A","poBox":"","locality":"Maracaibo","region":"","postalCode":""},{"worklocation":"VE25","extendedAddress":"OBS:CP Venezuela San Cristobal","streetAddress":"","poBox":"","locality":"","region":"","postalCode":""},{"worklocation":"VE26","extendedAddress":"OBS:CP Venezuela Puerto Ordaz","streetAddress":"","poBox":"","locality":"","region":"","postalCode":""},{"worklocation":"VE30","extendedAddress":"CP:Venezuela-Valencia","streetAddress":"Urb Michelena, Av Uslar","poBox":"","locality":"Valencia 2001","region":"","postalCode":"172"},{"worklocation":"VE40","extendedAddress":"CP:Venezuela-El Recreo","streetAddress":"Urb Ind. El Recreo Parcela 91","poBox":"","locality":"Valencia","region":"","postalCode":""},{"worklocation":"VE50","extendedAddress":"CP:Venezuela-San Diego","streetAddress":"Av. Industrial 73","poBox":"Galpon Colgate al lado de Inse","locality":"Valencia","region":"","postalCode":"2001"},{"worklocation":"VN10","extendedAddress":"CP:Vietnam-HO","streetAddress":"37 Ton Duc Thang Street,","poBox":"","locality":"District 1, HCMC","region":"VN","postalCode":""},{"worklocation":"VN11","extendedAddress":"CP:Vietnam-Plant","streetAddress":"103 Ho Hoc Lam Street","poBox":"Quarter 2, An Lac Ward","locality":"Bihn Tan Dist, HCMC","region":"","postalCode":""},{"worklocation":"VN12","extendedAddress":"CP:Vietnam-My Phuoc Plant","streetAddress":"D-9 CN","poBox":"My Phuoc 3 Industrial Zone","locality":"Binh Duong Province","region":"","postalCode":""},{"worklocation":"ZA10","extendedAddress":"CP:South Africa-Boksburg","streetAddress":"528 Commissioner Street","poBox":"P.O. Box 213","locality":"Boksburg, Gauteng","region":"","postalCode":"1460"},{"worklocation":"ZA11","extendedAddress":"CP:South Africa-Durban","streetAddress":"Corner Main \u0026 Duiker Road","poBox":"P.O. Box 2117","locality":"Verulam, Canelands","region":"","postalCode":"4340"},{"worklocation":"ZA12","extendedAddress":"CP:South Africa-East West","streetAddress":"528 Commissioner Street","poBox":"P.O. Box 213","locality":"Boksburg, Gauteng","region":"","postalCode":"1460"},{"worklocation":"ZA14","extendedAddress":"CP:South Africa-Midrand","streetAddress":"Building 7,Maxwell Office Park","poBox":"Magwa Crescent, Waterfall City","locality":"Midrand","region":"","postalCode":"2090"},{"worklocation":"ZAH1","extendedAddress":"Hill's:South Africa-CapeTown","streetAddress":"16 Victoria Avenue","poBox":"","locality":"Hout Bay","region":"","postalCode":"7806"},{"worklocation":"ZM01","extendedAddress":"OBS:CP:Zambia","streetAddress":"Nexus Centre","poBox":"","locality":"Lusaka","region":"","postalCode":"10101"},{"worklocation":"ZM02","extendedAddress":"CP:Zambia","streetAddress":"Nexus Centre","poBox":"","locality":"Lusaka","region":"","postalCode":"10101"},{"worklocation":"ZW01","extendedAddress":"OBS:CP:Zimbabwe","streetAddress":"105 Dartford Road, Willowvale","poBox":"","locality":"Harare","region":"","postalCode":""}]